{"type":"FeatureCollection","features":[{"type":"Feature","geometry":{"type":"Point","coordinates":[26.316330199895383,42.68052790032448]},"properties":{"selo":"Сливен","namestnichestvo":"Сливенска","obshtina":"Сливен","oblast":"Сливен","adres":"8800, гр. Сливен, площ. \"Хаджи Димитър\" № 3","tip":"център"}},{"type":"Feature","geometry":{"type":"Point","coordinates":[26.257611900400654,42.506223700317186]},"properties":{"selo":"Кермен","namestnichestvo":"Сливенска","obshtina":"Сливен","oblast":"Сливен","adres":"8870, гр. Кермен, ул. \"Иван Вазов\" № 35","tip":"град"}},{"type":"Feature","geometry":{"type":"Point","coordinates":[26.53646859996681,42.63228420002051]},"properties":{"selo":"Блатец","namestnichestvo":"Сливенска","obshtina":"Сливен","oblast":"Сливен","adres":"8878, с. Блатец","tip":"село"}},{"type":"Feature","geometry":{"type":"Point","coordinates":[26.1883956998495,42.72966489975028]},"properties":{"selo":"Бяла","namestnichestvo":"Сливенска","obshtina":"Сливен","oblast":"Сливен","adres":"8850, с. Бяла","tip":"село"}},{"type":"Feature","geometry":{"type":"Point","coordinates":[26.180579599597877,42.64248989970377]},"properties":{"selo":"Гавраилово","namestnichestvo":"Сливенска","obshtina":"Сливен","oblast":"Сливен","adres":"8854, с. Гавраилово","tip":"село"}},{"type":"Feature","geometry":{"type":"Point","coordinates":[26.344228399733222,42.59098449992879]},"properties":{"selo":"Гергевец","namestnichestvo":"Сливенска","obshtina":"Сливен","oblast":"Сливен","adres":"8869, с. Гергевец","tip":"село"}},{"type":"Feature","geometry":{"type":"Point","coordinates":[26.503586699646274,42.66002409988345]},"properties":{"selo":"Глушник","namestnichestvo":"Сливенска","obshtina":"Сливен","oblast":"Сливен","adres":"8879, с. Глушник","tip":"село"}},{"type":"Feature","geometry":{"type":"Point","coordinates":[26.14115089965751,42.669785600010044]},"properties":{"selo":"Голямо Чочовен","namestnichestvo":"Сливенска","obshtina":"Сливен","oblast":"Сливен","adres":"8863, с. Голямо Чочовен","tip":"село"}},{"type":"Feature","geometry":{"type":"Point","coordinates":[26.633560200215605,42.65474189972208]},"properties":{"selo":"Горно Александрово","namestnichestvo":"Сливенска","obshtina":"Сливен","oblast":"Сливен","adres":"8883, с. Горно Александрово","tip":"село"}},{"type":"Feature","geometry":{"type":"Point","coordinates":[26.12812650033922,42.76573260008041]},"properties":{"selo":"Градско","namestnichestvo":"Сливенска","obshtina":"Сливен","oblast":"Сливен","adres":"8852, с. Градско","tip":"село"}},{"type":"Feature","geometry":{"type":"Point","coordinates":[26.567289800059907,42.63048979980935]},"properties":{"selo":"Драгоданово","namestnichestvo":"Сливенска","obshtina":"Сливен","oblast":"Сливен","adres":"8888, с. Драгоданово","tip":"село"}},{"type":"Feature","geometry":{"type":"Point","coordinates":[26.48532310011387,42.59680060008614]},"properties":{"selo":"Желю войвода","namestnichestvo":"Сливенска","obshtina":"Сливен","oblast":"Сливен","adres":"8860, с. Желю войвода","tip":"село"}},{"type":"Feature","geometry":{"type":"Point","coordinates":[26.191249899933727,42.58848759993894]},"properties":{"selo":"Злати войвода","namestnichestvo":"Сливенска","obshtina":"Сливен","oblast":"Сливен","adres":"8875, с. Злати войвода","tip":"село"}},{"type":"Feature","geometry":{"type":"Point","coordinates":[26.461932199908993,42.65666060015357]},"properties":{"selo":"Калояново","namestnichestvo":"Сливенска","obshtina":"Сливен","oblast":"Сливен","adres":"8881, с. Калояново","tip":"село"}},{"type":"Feature","geometry":{"type":"Point","coordinates":[26.418723300319865,42.60329410014147]},"properties":{"selo":"Камен","namestnichestvo":"Сливенска","obshtina":"Сливен","oblast":"Сливен","adres":"8882, с. Камен","tip":"село"}},{"type":"Feature","geometry":{"type":"Point","coordinates":[26.22565809990577,42.573120800241135]},"properties":{"selo":"Ковачите","namestnichestvo":"Сливенска","obshtina":"Сливен","oblast":"Сливен","adres":"8874, с. Ковачите","tip":"село"}},{"type":"Feature","geometry":{"type":"Point","coordinates":[26.373962199954686,42.56323459988925]},"properties":{"selo":"Крушаре","namestnichestvo":"Сливенска","obshtina":"Сливен","oblast":"Сливен","adres":"8877, с. Крушаре","tip":"село"}},{"type":"Feature","geometry":{"type":"Point","coordinates":[26.204004800175195,42.65215310004813]},"properties":{"selo":"Малко Чочовен","namestnichestvo":"Сливенска","obshtina":"Сливен","oblast":"Сливен","adres":"8857, с. Малко Чочовен","tip":"село"}},{"type":"Feature","geometry":{"type":"Point","coordinates":[26.27683540011979,42.59410379990277]},"properties":{"selo":"Мечкарево Сливен","namestnichestvo":"Сливенска","obshtina":"Сливен","oblast":"Сливен","adres":"8868, с. Мечкарево","tip":"село"}},{"type":"Feature","geometry":{"type":"Point","coordinates":[26.269845800235224,42.5412298997864]},"properties":{"selo":"Николаево","namestnichestvo":"Сливенска","obshtina":"Сливен","oblast":"Сливен","adres":"8873, с. Николаево","tip":"село"}},{"type":"Feature","geometry":{"type":"Point","coordinates":[26.32311150022848,42.589807199850746]},"properties":{"selo":"Самуилово","namestnichestvo":"Сливенска","obshtina":"Сливен","oblast":"Сливен","adres":"8865, с. Самуилово","tip":"село"}},{"type":"Feature","geometry":{"type":"Point","coordinates":[26.154960699621988,42.645939999868496]},"properties":{"selo":"Селиминово","namestnichestvo":"Сливенска","obshtina":"Сливен","oblast":"Сливен","adres":"8862, с. Селиминово","tip":"село"}},{"type":"Feature","geometry":{"type":"Point","coordinates":[26.310629200048187,42.4880491000868]},"properties":{"selo":"Скобелево","namestnichestvo":"Сливенска","obshtina":"Сливен","oblast":"Сливен","adres":"8871, с. Скобелево","tip":"село"}},{"type":"Feature","geometry":{"type":"Point","coordinates":[26.404442299852914,42.69179309994987]},"properties":{"selo":"Сотиря","namestnichestvo":"Сливенска","obshtina":"Сливен","oblast":"Сливен","adres":"8859, с. Сотиря","tip":"село"}},{"type":"Feature","geometry":{"type":"Point","coordinates":[26.428720099551267,42.65221249967052]},"properties":{"selo":"Тополчане","namestnichestvo":"Сливенска","obshtina":"Сливен","oblast":"Сливен","adres":"8800, с. Тополчане","tip":"село"}},{"type":"Feature","geometry":{"type":"Point","coordinates":[26.593674500340782,42.647344499726415]},"properties":{"selo":"Трапоклово","namestnichestvo":"Сливенска","obshtina":"Сливен","oblast":"Сливен","adres":"8889, с. Трапоклово","tip":"село"}},{"type":"Feature","geometry":{"type":"Point","coordinates":[26.234110200192013,42.648537300117866]},"properties":{"selo":"Чинтулово","namestnichestvo":"Сливенска","obshtina":"Сливен","oblast":"Сливен","adres":"8858, с. Чинтулово","tip":"село"}},{"type":"Feature","geometry":{"type":"Point","coordinates":[26.35804159982105,42.51888869976136]},"properties":{"selo":"Чокоба","namestnichestvo":"Сливенска","obshtina":"Сливен","oblast":"Сливен","adres":"8887, с. Чокоба","tip":"село"}},{"type":"Feature","geometry":{"type":"Point","coordinates":[26.69153270039515,42.59725809986474]},"properties":{"selo":"Стралджа","namestnichestvo":"Сливенска","obshtina":"Стралджа","oblast":"Ямбол","adres":"8680, гр. Стралджа,  ул. \"Пеньо Кабаков\" №  0","tip":"град"}},{"type":"Feature","geometry":{"type":"Point","coordinates":[26.731896700158206,42.5982567996959]},"properties":{"selo":"Атолово","namestnichestvo":"Сливенска","obshtina":"Стралджа","oblast":"Ямбол","adres":"8683, с. Атолово","tip":"село"}},{"type":"Feature","geometry":{"type":"Point","coordinates":[26.6064963996311,42.578492799756894]},"properties":{"selo":"Зимница","namestnichestvo":"Сливенска","obshtina":"Стралджа","oblast":"Ямбол","adres":"8690, с. Зимница","tip":"село"}},{"type":"Feature","geometry":{"type":"Point","coordinates":[26.70913179994222,42.63583609973678]},"properties":{"selo":"Лозенец","namestnichestvo":"Сливенска","obshtina":"Стралджа","oblast":"Ямбол","adres":"8688, с. Лозенец","tip":"село"}},{"type":"Feature","geometry":{"type":"Point","coordinates":[26.620501699950832,42.54512529981096]},"properties":{"selo":"Чарда","namestnichestvo":"Сливенска","obshtina":"Стралджа","oblast":"Ямбол","adres":"8692, с. Чарда","tip":"село"}},{"type":"Feature","geometry":{"type":"Point","coordinates":[26.082387500243936,42.73247600025869]},"properties":{"selo":"Боров дол","namestnichestvo":"Сливенска","obshtina":"Твърдица","oblast":"Сливен","adres":"8898, с. Боров дол","tip":"село"}},{"type":"Feature","geometry":{"type":"Point","coordinates":[26.54477180000317,42.532769099896406]},"properties":{"selo":"Веселиново","namestnichestvo":"Сливенска","obshtina":"Тунджа","oblast":"Ямбол","adres":"8632, с. Веселиново","tip":"село"}},{"type":"Feature","geometry":{"type":"Point","coordinates":[27.470025399943477,42.497677900025586]},"properties":{"selo":"Бургас","namestnichestvo":"Бургаска","obshtina":"Бургас","oblast":"Бургас","adres":"8000, гр. Бургас, площ. \"Св. св. Кирил и Методий\" № 0","tip":"център"}},{"type":"Feature","geometry":{"type":"Point","coordinates":[27.303486974660633,42.492497081408416]},"properties":{"selo":"Бургаскв","namestnichestvo":"Бургаска","obshtina":"Бургас","oblast":"Бургас","adres":"8017, гр. Бургас, кв. \"Горно езеров\"","tip":"град"}},{"type":"Feature","geometry":{"type":"Point","coordinates":[27.377957900110676,42.485832099975276]},"properties":{"selo":"Горно езерово","namestnichestvo":"Бургаска","obshtina":"Бургас","oblast":"Бургас","adres":"8017, с. (кв.) Горно езерово, Бургас","tip":"село"}},{"type":"Feature","geometry":{"type":"Point","coordinates":[27.372039799917186,42.5166565998789]},"properties":{"selo":"Долно езерово","namestnichestvo":"Бургаска","obshtina":"Бургас","oblast":"Бургас","adres":"8019, с. (кв.) Долно езерово","tip":"село"}},{"type":"Feature","geometry":{"type":"Point","coordinates":[27.487049999916913,42.44528000028272]},"properties":{"selo":"Крайморие","namestnichestvo":"Бургаска","obshtina":"Бургас","oblast":"Бургас","adres":"8014, с. (кв.) Крайморие, Бургас, централен площад","tip":"село"}},{"type":"Feature","geometry":{"type":"Point","coordinates":[27.522303100447964,42.56105749995219]},"properties":{"selo":"Сарафово","namestnichestvo":"Бургаска","obshtina":"Бургас","oblast":"Бургас","adres":"8016, с. (кв.) Сарафово, Бургас","tip":"село"}},{"type":"Feature","geometry":{"type":"Point","coordinates":[27.48805229968675,42.612324199961904]},"properties":{"selo":"мина Черно море","namestnichestvo":"Бургаска","obshtina":"Бургас","oblast":"Бургас","adres":"8115, мина Черно море","tip":"село"}},{"type":"Feature","geometry":{"type":"Point","coordinates":[27.39315589992134,42.627687899856184]},"properties":{"selo":"Банево","namestnichestvo":"Бургаска","obshtina":"Бургас","oblast":"Бургас","adres":"8125, с. Банево","tip":"село"}},{"type":"Feature","geometry":{"type":"Point","coordinates":[27.39315589992134,42.627687899856184]},"properties":{"selo":"Банево","namestnichestvo":"Бургаска","obshtina":"Бургас","oblast":"Бургас","adres":"8125, с. Банево","tip":"село"}},{"type":"Feature","geometry":{"type":"Point","coordinates":[27.304059600348623,42.50456700027657]},"properties":{"selo":"Братово","namestnichestvo":"Бургаска","obshtina":"Бургас","oblast":"Бургас","adres":"8111, с. Братово","tip":"село"}},{"type":"Feature","geometry":{"type":"Point","coordinates":[27.304059600348623,42.50456700027657]},"properties":{"selo":"Братово","namestnichestvo":"Бургаска","obshtina":"Бургас","oblast":"Бургас","adres":"8111, с. Братово","tip":"село"}},{"type":"Feature","geometry":{"type":"Point","coordinates":[27.46367719986672,42.67206080003623]},"properties":{"selo":"Брястовец","namestnichestvo":"Бургаска","obshtina":"Бургас","oblast":"Бургас","adres":"8113, с. Брястовец","tip":"село"}},{"type":"Feature","geometry":{"type":"Point","coordinates":[27.386020000409584,42.602625200298114]},"properties":{"selo":"Ветрен","namestnichestvo":"Бургаска","obshtina":"Бургас","oblast":"Бургас","adres":"8127, с. Ветрен, централен площад","tip":"село"}},{"type":"Feature","geometry":{"type":"Point","coordinates":[27.408821499786843,42.404931300040225]},"properties":{"selo":"Димчево","namestnichestvo":"Бургаска","obshtina":"Бургас","oblast":"Бургас","adres":"8159, с. Димчево","tip":"село"}},{"type":"Feature","geometry":{"type":"Point","coordinates":[27.442711299974718,42.65702129973173]},"properties":{"selo":"Изворище","namestnichestvo":"Бургаска","obshtina":"Бургас","oblast":"Бургас","adres":"8116, с. Изворище","tip":"село"}},{"type":"Feature","geometry":{"type":"Point","coordinates":[27.482664800195636,42.40230229974371]},"properties":{"selo":"Маринка","namestnichestvo":"Бургаска","obshtina":"Бургас","oblast":"Бургас","adres":"8154, с. Маринка","tip":"село"}},{"type":"Feature","geometry":{"type":"Point","coordinates":[27.482664800195636,42.40230229974371]},"properties":{"selo":"Маринка","namestnichestvo":"Бургаска","obshtina":"Бургас","oblast":"Бургас","adres":"8154, с. Маринка","tip":"село"}},{"type":"Feature","geometry":{"type":"Point","coordinates":[27.24120050038207,42.5144137999657]},"properties":{"selo":"Равнец","namestnichestvo":"Бургаска","obshtina":"Бургас","oblast":"Бургас","adres":"8117, с. Равнец","tip":"село"}},{"type":"Feature","geometry":{"type":"Point","coordinates":[27.486579599813325,42.62585550001594]},"properties":{"selo":"Рудник","namestnichestvo":"Бургаска","obshtina":"Бургас","oblast":"Бургас","adres":"орлинци","tip":"село"}},{"type":"Feature","geometry":{"type":"Point","coordinates":[27.457867999740195,42.40999179980679]},"properties":{"selo":"Твърдица","namestnichestvo":"Бургаска","obshtina":"Бургас","oblast":"Бургас","adres":"8155, с. Твърдица","tip":"село"}},{"type":"Feature","geometry":{"type":"Point","coordinates":[27.549196499606218,42.91490590027873]},"properties":{"selo":"Голица","namestnichestvo":"Бургаска","obshtina":"Долни Чифлик","oblast":"Варна","adres":"9114, с. Голица","tip":"село"}},{"type":"Feature","geometry":{"type":"Point","coordinates":[27.29572700024966,42.572913099876594]},"properties":{"selo":"Камено","namestnichestvo":"Бургаска","obshtina":"Камено","oblast":"Бургас","adres":"8120, гр. Камено","tip":"град"}},{"type":"Feature","geometry":{"type":"Point","coordinates":[27.29572700024966,42.572913099876594]},"properties":{"selo":"Камено","namestnichestvo":"Бургаска","obshtina":"Камено","oblast":"Бургас","adres":"8120, гр. Камено, ул. \"Освобождение\" № 80","tip":"град"}},{"type":"Feature","geometry":{"type":"Point","coordinates":[27.138912800188166,42.48216119972411]},"properties":{"selo":"Желязово","namestnichestvo":"Бургаска","obshtina":"Камено","oblast":"Бургас","adres":"8106, с. Желязово","tip":"село"}},{"type":"Feature","geometry":{"type":"Point","coordinates":[27.315398099932157,42.409720200187465]},"properties":{"selo":"Константиново","namestnichestvo":"Бургаска","obshtina":"Камено","oblast":"Бургас","adres":"8129, с. Константиново","tip":"село"}},{"type":"Feature","geometry":{"type":"Point","coordinates":[27.219247599927836,42.4458355002792]},"properties":{"selo":"Ливада","namestnichestvo":"Бургаска","obshtina":"Камено","oblast":"Бургас","adres":"8107, с. Ливада","tip":"село"}},{"type":"Feature","geometry":{"type":"Point","coordinates":[27.293551300394466,42.44938450003915]},"properties":{"selo":"Полски извор","namestnichestvo":"Бургаска","obshtina":"Камено","oblast":"Бургас","adres":"8123, с. Полски извор","tip":"село"}},{"type":"Feature","geometry":{"type":"Point","coordinates":[27.186577400180376,42.46578229993218]},"properties":{"selo":"Русокастро","namestnichestvo":"Бургаска","obshtina":"Камено","oblast":"Бургас","adres":"8105, с. Русокастро","tip":"село"}},{"type":"Feature","geometry":{"type":"Point","coordinates":[27.145297400000246,42.55348919975884]},"properties":{"selo":"Трояново","namestnichestvo":"Бургаска","obshtina":"Камено","oblast":"Бургас","adres":"8108, с. Трояново","tip":"село"}},{"type":"Feature","geometry":{"type":"Point","coordinates":[27.26169959971982,42.42731929980556]},"properties":{"selo":"Тръстиково","namestnichestvo":"Бургаска","obshtina":"Камено","oblast":"Бургас","adres":"8128, с. Тръстиково","tip":"село"}},{"type":"Feature","geometry":{"type":"Point","coordinates":[27.340422099594292,42.44568019967959]},"properties":{"selo":"Черни връх","namestnichestvo":"Бургаска","obshtina":"Камено","oblast":"Бургас","adres":"8122, с. Черни връх","tip":"село"}},{"type":"Feature","geometry":{"type":"Point","coordinates":[27.69392459964685,42.75237419977377]},"properties":{"selo":"Кошарица","namestnichestvo":"Бургаска","obshtina":"Кошарица","oblast":"Бургас","adres":"8253, с. Кошарица","tip":"село"}},{"type":"Feature","geometry":{"type":"Point","coordinates":[27.722936823483124,42.660255391008086]},"properties":{"selo":"Несебър","namestnichestvo":"Бургаска","obshtina":"Несебър","oblast":"Бургас","adres":"8230, гр. Несебър, ул. \"Хемус\" № 16","tip":"град"}},{"type":"Feature","geometry":{"type":"Point","coordinates":[27.722936823483124,42.660255391008086]},"properties":{"selo":"Несебър","namestnichestvo":"Бургаска","obshtina":"Несебър","oblast":"Бургас","adres":"8230, гр. Несебър","tip":"град"}},{"type":"Feature","geometry":{"type":"Point","coordinates":[27.88170459981609,42.8189035999923]},"properties":{"selo":"Обзор","namestnichestvo":"Бургаска","obshtina":"Несебър","oblast":"Бургас","adres":"8250, гр. Обзор, ул. \"Русалка\" № 8","tip":"град"}},{"type":"Feature","geometry":{"type":"Point","coordinates":[27.752958074766482,42.70971125358183]},"properties":{"selo":"Свети Влас","namestnichestvo":"Бургаска","obshtina":"Несебър","oblast":"Бургас","adres":"8256, гр. Свети Влас","tip":"град"}},{"type":"Feature","geometry":{"type":"Point","coordinates":[27.71422815465126,42.69523860020495]},"properties":{"selo":"Слънчев бряг","namestnichestvo":"Бургаска","obshtina":"Несебър","oblast":"Бургас","adres":"8240, гр. Слънчев бряг","tip":"град"}},{"type":"Feature","geometry":{"type":"Point","coordinates":[27.81789580003285,42.775448200096044]},"properties":{"selo":"Баня","namestnichestvo":"Бургаска","obshtina":"Несебър","oblast":"Бургас","adres":"8239, с. Баня","tip":"село"}},{"type":"Feature","geometry":{"type":"Point","coordinates":[27.885119799591905,42.71543610005004]},"properties":{"selo":"Емона","namestnichestvo":"Бургаска","obshtina":"Несебър","oblast":"Бургас","adres":"8252, с. Емона","tip":"село"}},{"type":"Feature","geometry":{"type":"Point","coordinates":[27.69392459964685,42.75237419977377]},"properties":{"selo":"Кошарица","namestnichestvo":"Бургаска","obshtina":"Несебър","oblast":"Бургас","adres":"8253, с. Кошарица","tip":"село"}},{"type":"Feature","geometry":{"type":"Point","coordinates":[27.620108299900583,42.75066090023204]},"properties":{"selo":"Оризаре","namestnichestvo":"Бургаска","obshtina":"Несебър","oblast":"Бургас","adres":"8248, с. Оризаре","tip":"село"}},{"type":"Feature","geometry":{"type":"Point","coordinates":[27.661795400397796,42.85049999998402]},"properties":{"selo":"Паницово","namestnichestvo":"Бургаска","obshtina":"Несебър","oblast":"Бургас","adres":"8254, с. Паницово","tip":"село"}},{"type":"Feature","geometry":{"type":"Point","coordinates":[27.803115000298,42.82412040015222]},"properties":{"selo":"Приселци","namestnichestvo":"Бургаска","obshtina":"Несебър","oblast":"Бургас","adres":"8251, с. Приселци","tip":"село"}},{"type":"Feature","geometry":{"type":"Point","coordinates":[27.679596446129086,42.64311312549463]},"properties":{"selo":"Равда","namestnichestvo":"Бургаска","obshtina":"Несебър","oblast":"Бургас","adres":"8238, с. Равда","tip":"село"}},{"type":"Feature","geometry":{"type":"Point","coordinates":[27.731137100085714,42.83606299991517]},"properties":{"selo":"Раковсково","namestnichestvo":"Бургаска","obshtina":"Несебър","oblast":"Бургас","adres":"8257, с. Раковсково","tip":"село"}},{"type":"Feature","geometry":{"type":"Point","coordinates":[27.649814500283224,42.69400369969753]},"properties":{"selo":"Тънково","namestnichestvo":"Бургаска","obshtina":"Несебър","oblast":"Бургас","adres":"8237, с. Тънково","tip":"село"}},{"type":"Feature","geometry":{"type":"Point","coordinates":[27.64187929959459,42.55604379985792]},"properties":{"selo":"Поморие","namestnichestvo":"Бургаска","obshtina":"Поморие","oblast":"Бургас","adres":"8200, гр. Поморие","tip":"град"}},{"type":"Feature","geometry":{"type":"Point","coordinates":[27.64187929959459,42.55604379985792]},"properties":{"selo":"Поморие","namestnichestvo":"Бургаска","obshtina":"Поморие","oblast":"Бургас","adres":"8890, гр. Поморие, ул.\"Хан Кубрат\" № 3","tip":"град"}},{"type":"Feature","geometry":{"type":"Point","coordinates":[27.596732500375644,42.69706530009364]},"properties":{"selo":"Александрово","namestnichestvo":"Бургаска","obshtina":"Поморие","oblast":"Бургас","adres":"8211, с. Александрово","tip":"село"}},{"type":"Feature","geometry":{"type":"Point","coordinates":[27.648440899856997,42.64905989987622]},"properties":{"selo":"Ахелой","namestnichestvo":"Бургаска","obshtina":"Поморие","oblast":"Бургас","adres":"8217, с. Ахелой, централен площад","tip":"село"}},{"type":"Feature","geometry":{"type":"Point","coordinates":[27.49720390011844,42.73829990003153]},"properties":{"selo":"Бата","namestnichestvo":"Бургаска","obshtina":"Поморие","oblast":"Бургас","adres":"8218, с. Бата","tip":"село"}},{"type":"Feature","geometry":{"type":"Point","coordinates":[27.49720390011844,42.73829990003153]},"properties":{"selo":"Бата","namestnichestvo":"Бургаска","obshtina":"Поморие","oblast":"Бургас","adres":"8218, с. Бата","tip":"село"}},{"type":"Feature","geometry":{"type":"Point","coordinates":[27.522994699910466,42.794394500246895]},"properties":{"selo":"Горица","namestnichestvo":"Бургаска","obshtina":"Поморие","oblast":"Бургас","adres":"8225, с. Горица","tip":"село"}},{"type":"Feature","geometry":{"type":"Point","coordinates":[27.528483300295214,42.771375900229295]},"properties":{"selo":"Гълъбец","namestnichestvo":"Бургаска","obshtina":"Поморие","oblast":"Бургас","adres":"8220, с. Гълъбец","tip":"село"}},{"type":"Feature","geometry":{"type":"Point","coordinates":[27.566200999775162,42.6595757000491]},"properties":{"selo":"Каблешково","namestnichestvo":"Бургаска","obshtina":"Поморие","oblast":"Бургас","adres":"8210, гр. Каблешково, ул.\"Климент Охридски\" № 3","tip":"град"}},{"type":"Feature","geometry":{"type":"Point","coordinates":[27.573923500065753,42.62506940009371]},"properties":{"selo":"Каменар","namestnichestvo":"Бургаска","obshtina":"Поморие","oblast":"Бургас","adres":"8215, с. Каменар","tip":"село"}},{"type":"Feature","geometry":{"type":"Point","coordinates":[27.57317700006467,42.83820530020641]},"properties":{"selo":"Козичино","namestnichestvo":"Бургаска","obshtina":"Поморие","oblast":"Бургас","adres":"8224, с. Козичино","tip":"село"}},{"type":"Feature","geometry":{"type":"Point","coordinates":[27.538350999942182,42.621609000169016]},"properties":{"selo":"Лъка","namestnichestvo":"Бургаска","obshtina":"Поморие","oblast":"Бургас","adres":"8216, с. Лъка","tip":"село"}},{"type":"Feature","geometry":{"type":"Point","coordinates":[27.572882499975165,42.694146300062236]},"properties":{"selo":"Медово","namestnichestvo":"Бургаска","obshtina":"Поморие","oblast":"Бургас","adres":"8214, с. Медово","tip":"село"}},{"type":"Feature","geometry":{"type":"Point","coordinates":[27.54932210025262,42.75035679999536]},"properties":{"selo":"Порой","namestnichestvo":"Бургаска","obshtina":"Поморие","oblast":"Бургас","adres":"8221, с. Порой","tip":"село"}},{"type":"Feature","geometry":{"type":"Point","coordinates":[27.472987800307063,42.77360289999622]},"properties":{"selo":"Страцин","namestnichestvo":"Бургаска","obshtina":"Поморие","oblast":"Бургас","adres":"8222, с. Страцин","tip":"село"}},{"type":"Feature","geometry":{"type":"Point","coordinates":[27.75517810028192,42.26662769994406]},"properties":{"selo":"Приморско","namestnichestvo":"Бургаска","obshtina":"Приморско","oblast":"Бургас","adres":"8180, гр. Приморско, ул. \"Трети март\" № 28","tip":"град"}},{"type":"Feature","geometry":{"type":"Point","coordinates":[27.62117099969516,42.32738550003521]},"properties":{"selo":"Веселие","namestnichestvo":"Бургаска","obshtina":"Приморско","oblast":"Бургас","adres":"8145, с. Веселие","tip":"село"}},{"type":"Feature","geometry":{"type":"Point","coordinates":[27.62117099969516,42.32738550003521]},"properties":{"selo":"Веселие","namestnichestvo":"Бургаска","obshtina":"Приморско","oblast":"Бургас","adres":"8145, с. Веселие","tip":"село"}},{"type":"Feature","geometry":{"type":"Point","coordinates":[27.552409900039994,42.28502489981486]},"properties":{"selo":"Ново Паничарево","namestnichestvo":"Бургаска","obshtina":"Приморско","oblast":"Бургас","adres":"8152, с. Ново Паничарево","tip":"село"}},{"type":"Feature","geometry":{"type":"Point","coordinates":[27.552409900039994,42.28502489981486]},"properties":{"selo":"Ново Паничарево","namestnichestvo":"Бургаска","obshtina":"Приморско","oblast":"Бургас","adres":"8152, с. Ново Паничарево","tip":"село"}},{"type":"Feature","geometry":{"type":"Point","coordinates":[27.612976299975458,42.28120349995208]},"properties":{"selo":"Ясна Поляна","namestnichestvo":"Бургаска","obshtina":"Приморско","oblast":"Бургас","adres":"8147, с. Ясна Поляна","tip":"село"}},{"type":"Feature","geometry":{"type":"Point","coordinates":[27.612976299975458,42.28120349995208]},"properties":{"selo":"Ясна поляна","namestnichestvo":"Бургаска","obshtina":"Приморско","oblast":"Бургас","adres":"8147, с. Ясна поляна","tip":"село"}},{"type":"Feature","geometry":{"type":"Point","coordinates":[27.45108110020792,42.798470600210514]},"properties":{"selo":"Просеник","namestnichestvo":"Бургаска","obshtina":"Руен","oblast":"Бургас","adres":"8548, с. Просеник","tip":"село"}},{"type":"Feature","geometry":{"type":"Point","coordinates":[27.6964328001247,42.41732760026959]},"properties":{"selo":"Созопол","namestnichestvo":"Бургаска","obshtina":"Созопол","oblast":"Бургас","adres":"8130, гр. Созопол","tip":"град"}},{"type":"Feature","geometry":{"type":"Point","coordinates":[27.6964328001247,42.41732760026959]},"properties":{"selo":"Созопол","namestnichestvo":"Бургаска","obshtina":"Созопол","oblast":"Бургас","adres":"8130, гр. Созопол, ул. \"Аполония\" № 36","tip":"град"}},{"type":"Feature","geometry":{"type":"Point","coordinates":[27.58433500025985,42.42437880010043]},"properties":{"selo":"Атия","namestnichestvo":"Бургаска","obshtina":"Созопол","oblast":"Бургас","adres":"8140, с. Атия","tip":"село"}},{"type":"Feature","geometry":{"type":"Point","coordinates":[27.379188900172057,42.25800609992968]},"properties":{"selo":"Вършило","namestnichestvo":"Бургаска","obshtina":"Созопол","oblast":"Бургас","adres":"8157, с. Вършило","tip":"село"}},{"type":"Feature","geometry":{"type":"Point","coordinates":[27.35465689970619,42.31127390031371]},"properties":{"selo":"Габър","namestnichestvo":"Бургаска","obshtina":"Созопол","oblast":"Бургас","adres":"8158, с. Габър","tip":"село"}},{"type":"Feature","geometry":{"type":"Point","coordinates":[27.40314909960337,42.32911149991393]},"properties":{"selo":"Зидарово","namestnichestvo":"Бургаска","obshtina":"Созопол","oblast":"Бургас","adres":"8160, с. Зидарово","tip":"село"}},{"type":"Feature","geometry":{"type":"Point","coordinates":[27.46153219993636,42.35344470004011]},"properties":{"selo":"Извор","namestnichestvo":"Бургаска","obshtina":"Созопол","oblast":"Бургас","adres":"8153, с. Извор","tip":"село"}},{"type":"Feature","geometry":{"type":"Point","coordinates":[27.46153219993636,42.35344470004011]},"properties":{"selo":"Извор","namestnichestvo":"Бургаска","obshtina":"Созопол","oblast":"Бургас","adres":"8153, с. Извор","tip":"село"}},{"type":"Feature","geometry":{"type":"Point","coordinates":[27.41580549957394,42.22295340017049]},"properties":{"selo":"Индже войвода","namestnichestvo":"Бургаска","obshtina":"Созопол","oblast":"Бургас","adres":"8149, с. Индже войвода","tip":"село"}},{"type":"Feature","geometry":{"type":"Point","coordinates":[27.41580549957394,42.22295340017049]},"properties":{"selo":"Индже войвода","namestnichestvo":"Бургаска","obshtina":"Созопол","oblast":"Бургас","adres":"8149, с. Индже войвода","tip":"село"}},{"type":"Feature","geometry":{"type":"Point","coordinates":[27.485578999656,42.273883599711816]},"properties":{"selo":"Крушевец","namestnichestvo":"Бургаска","obshtina":"Созопол","oblast":"Бургас","adres":"8148, с. Крушевец","tip":"село"}},{"type":"Feature","geometry":{"type":"Point","coordinates":[27.383748499720898,42.37607960028331]},"properties":{"selo":"Присад","namestnichestvo":"Бургаска","obshtina":"Созопол","oblast":"Бургас","adres":"8161, с. Присад","tip":"село"}},{"type":"Feature","geometry":{"type":"Point","coordinates":[27.667040199811087,42.38293889994409]},"properties":{"selo":"Равадиново","namestnichestvo":"Бургаска","obshtina":"Созопол","oblast":"Бургас","adres":"8146, с. Равадиново","tip":"село"}},{"type":"Feature","geometry":{"type":"Point","coordinates":[27.53957329982004,42.36251530020866]},"properties":{"selo":"Равна гора","namestnichestvo":"Бургаска","obshtina":"Созопол","oblast":"Бургас","adres":"8151, с. Равна гора","tip":"село"}},{"type":"Feature","geometry":{"type":"Point","coordinates":[27.566596899897302,42.38659589968033]},"properties":{"selo":"Росен","namestnichestvo":"Бургаска","obshtina":"Созопол","oblast":"Бургас","adres":"8150, с. Росен","tip":"село"}},{"type":"Feature","geometry":{"type":"Point","coordinates":[27.6387115003396,42.44432449999675]},"properties":{"selo":"Черноморец","namestnichestvo":"Бургаска","obshtina":"Созопол","oblast":"Бургас","adres":"8142, с. Черноморец, ул. \"Морска\" № 14","tip":"село"}},{"type":"Feature","geometry":{"type":"Point","coordinates":[27.18122209990232,42.34529309976046]},"properties":{"selo":"Средец","namestnichestvo":"Бургаска","obshtina":"Средец","oblast":"Бургас","adres":"8300, гр. Средец","tip":"град"}},{"type":"Feature","geometry":{"type":"Point","coordinates":[27.18122209990232,42.34529309976046]},"properties":{"selo":"Средец","namestnichestvo":"Бургаска","obshtina":"Средец","oblast":"Бургас","adres":"8300, гр. Средец, централен площад","tip":"град"}},{"type":"Feature","geometry":{"type":"Point","coordinates":[27.178170099775677,42.09386400007319]},"properties":{"selo":"Белеврен","namestnichestvo":"Бургаска","obshtina":"Средец","oblast":"Бургас","adres":"8345, с. Белеврен","tip":"село"}},{"type":"Feature","geometry":{"type":"Point","coordinates":[27.10306239994325,42.330297900328105]},"properties":{"selo":"Белила","namestnichestvo":"Бургаска","obshtina":"Средец","oblast":"Бургас","adres":"8316, с. Белила","tip":"село"}},{"type":"Feature","geometry":{"type":"Point","coordinates":[27.015568199865655,42.313809999753545]},"properties":{"selo":"Бистрец","namestnichestvo":"Бургаска","obshtina":"Средец","oblast":"Бургас","adres":"8334, с. Бистрец","tip":"село"}},{"type":"Feature","geometry":{"type":"Point","coordinates":[27.259096800354357,42.23165920015232]},"properties":{"selo":"Богданово","namestnichestvo":"Бургаска","obshtina":"Средец","oblast":"Бургас","adres":"8337, с. Богданово","tip":"село"}},{"type":"Feature","geometry":{"type":"Point","coordinates":[27.234683600288196,42.21541520030744]},"properties":{"selo":"Варовник","namestnichestvo":"Бургаска","obshtina":"Средец","oblast":"Бургас","adres":"8338, с. Варовник","tip":"село"}},{"type":"Feature","geometry":{"type":"Point","coordinates":[27.068207700444063,42.26253320032834]},"properties":{"selo":"Вълчаново","namestnichestvo":"Бургаска","obshtina":"Средец","oblast":"Бургас","adres":"8341, с. Вълчаново","tip":"село"}},{"type":"Feature","geometry":{"type":"Point","coordinates":[27.186337000230566,42.18829849997134]},"properties":{"selo":"Голямо буково","namestnichestvo":"Бургаска","obshtina":"Средец","oblast":"Бургас","adres":"8329, с. Голямо Буково","tip":"село"}},{"type":"Feature","geometry":{"type":"Point","coordinates":[27.10185700007082,42.11099229987537]},"properties":{"selo":"Горно Ябълково","namestnichestvo":"Бургаска","obshtina":"Средец","oblast":"Бургас","adres":"8343, с. Горно Ябълково","tip":"село"}},{"type":"Feature","geometry":{"type":"Point","coordinates":[27.242864299764168,42.13490979978265]},"properties":{"selo":"Граничар","namestnichestvo":"Бургаска","obshtina":"Средец","oblast":"Бургас","adres":"8347, с. Граничар","tip":"село"}},{"type":"Feature","geometry":{"type":"Point","coordinates":[27.265148199756208,42.39448449977568]},"properties":{"selo":"Дебелт","namestnichestvo":"Бургаска","obshtina":"Средец","oblast":"Бургас","adres":"8314, с. Дебелт","tip":"село"}},{"type":"Feature","geometry":{"type":"Point","coordinates":[27.114992600041504,42.13394859986633]},"properties":{"selo":"Долно Ябълково","namestnichestvo":"Бургаска","obshtina":"Средец","oblast":"Бургас","adres":"8342, с. Долно Ябълково","tip":"село"}},{"type":"Feature","geometry":{"type":"Point","coordinates":[27.0165920996265,42.36441149986297]},"properties":{"selo":"Драка","namestnichestvo":"Бургаска","obshtina":"Средец","oblast":"Бургас","adres":"8324, с. Драка","tip":"село"}},{"type":"Feature","geometry":{"type":"Point","coordinates":[27.25321259988477,42.34159980000496]},"properties":{"selo":"Драчево","namestnichestvo":"Бургаска","obshtina":"Средец","oblast":"Бургас","adres":"8319, с. Драчево","tip":"село"}},{"type":"Feature","geometry":{"type":"Point","coordinates":[27.16268470015953,42.39451890029229]},"properties":{"selo":"Дюлево","namestnichestvo":"Бургаска","obshtina":"Средец","oblast":"Бургас","adres":"8330, с. Дюлево","tip":"село"}},{"type":"Feature","geometry":{"type":"Point","coordinates":[27.060236499770447,42.39666759987246]},"properties":{"selo":"Загорци","namestnichestvo":"Бургаска","obshtina":"Средец","oblast":"Бургас","adres":"8321, с. Загорци","tip":"село"}},{"type":"Feature","geometry":{"type":"Point","coordinates":[27.188521599695303,42.15752839994183]},"properties":{"selo":"Кирово","namestnichestvo":"Бургаска","obshtina":"Средец","oblast":"Бургас","adres":"8344, с. Кирово","tip":"село"}},{"type":"Feature","geometry":{"type":"Point","coordinates":[27.01415229956934,42.14305030025605]},"properties":{"selo":"Момина църква","namestnichestvo":"Бургаска","obshtina":"Средец","oblast":"Бургас","adres":"8320, с. Момина църква","tip":"село"}},{"type":"Feature","geometry":{"type":"Point","coordinates":[27.060050700321916,42.33120590002252]},"properties":{"selo":"Проход","namestnichestvo":"Бургаска","obshtina":"Средец","oblast":"Бургас","adres":"8336, с. Проход","tip":"село"}},{"type":"Feature","geometry":{"type":"Point","coordinates":[27.155495100258385,42.276535600228065]},"properties":{"selo":"Пънчево","namestnichestvo":"Бургаска","obshtina":"Средец","oblast":"Бургас","adres":"8317, с. Пънчево","tip":"село"}},{"type":"Feature","geometry":{"type":"Point","coordinates":[27.22823849984003,42.29130769975234]},"properties":{"selo":"Росеново","namestnichestvo":"Бургаска","obshtina":"Средец","oblast":"Бургас","adres":"8318, с. Росеново","tip":"село"}},{"type":"Feature","geometry":{"type":"Point","coordinates":[27.10407779984486,42.37196570012668]},"properties":{"selo":"Светлина","namestnichestvo":"Бургаска","obshtina":"Средец","oblast":"Бургас","adres":"8322, с. Светлина","tip":"село"}},{"type":"Feature","geometry":{"type":"Point","coordinates":[27.10407779984486,42.37196570012668]},"properties":{"selo":"Светлина","namestnichestvo":"Бургаска","obshtina":"Средец","oblast":"Бургас","adres":"8322, с. Светлина","tip":"село"}},{"type":"Feature","geometry":{"type":"Point","coordinates":[27.013464599693467,42.232832500070714]},"properties":{"selo":"Сливово","namestnichestvo":"Бургаска","obshtina":"Средец","oblast":"Бургас","adres":"8331, с. Сливово","tip":"село"}},{"type":"Feature","geometry":{"type":"Point","coordinates":[27.082041000336343,42.4395567997594]},"properties":{"selo":"Суходол","namestnichestvo":"Бургаска","obshtina":"Средец","oblast":"Бургас","adres":"8328, с. Суходол","tip":"село"}},{"type":"Feature","geometry":{"type":"Point","coordinates":[27.085952500442026,42.190034500249276]},"properties":{"selo":"Факия","namestnichestvo":"Бургаска","obshtina":"Средец","oblast":"Бургас","adres":"8340, с. Факия","tip":"село"}},{"type":"Feature","geometry":{"type":"Point","coordinates":[25.897853999833426,42.70111409984658]},"properties":{"selo":"Твърдица","namestnichestvo":"Бургаска","obshtina":"Твърдица","oblast":"Сливен","adres":"8890, гр. Твърдица , ул. \"Черковна\" № 2","tip":"град"}},{"type":"Feature","geometry":{"type":"Point","coordinates":[26.510773699822956,42.483774900285034]},"properties":{"selo":"Ямбол","namestnichestvo":"Ямболска","obshtina":"Ямбол","oblast":"Ямбол","adres":"8600, гр. Ямбол, ул. \"Ал. Стамболийски\" № 25","tip":"център"}},{"type":"Feature","geometry":{"type":"Point","coordinates":[26.86764270018314,42.265292200148316]},"properties":{"selo":"Денница","namestnichestvo":"Ямболска","obshtina":"Болярово","oblast":"Ямбол","adres":"8726, с. Денница","tip":"село"}},{"type":"Feature","geometry":{"type":"Point","coordinates":[26.925228100137083,42.266985300113056]},"properties":{"selo":"Оман","namestnichestvo":"Ямболска","obshtina":"Болярово","oblast":"Ямбол","adres":"8727, с. Оман","tip":"село"}},{"type":"Feature","geometry":{"type":"Point","coordinates":[26.730295299552324,42.29423280022537]},"properties":{"selo":"Борисово","namestnichestvo":"Ямболска","obshtina":"Елхово","oblast":"Ямбол","adres":"8731, с. Борисово","tip":"село"}},{"type":"Feature","geometry":{"type":"Point","coordinates":[26.62552960024045,42.25794600010751]},"properties":{"selo":"Бояново","namestnichestvo":"Ямболска","obshtina":"Елхово","oblast":"Ямбол","adres":"8730, с. Бояново","tip":"село"}},{"type":"Feature","geometry":{"type":"Point","coordinates":[26.678086300404157,42.276751100319515]},"properties":{"selo":"Стройно","namestnichestvo":"Ямболска","obshtina":"Елхово","oblast":"Ямбол","adres":"8732, с. Стройно","tip":"село"}},{"type":"Feature","geometry":{"type":"Point","coordinates":[26.92791330016693,42.385037899924264]},"properties":{"selo":"Зорница","namestnichestvo":"Ямболска","obshtina":"Средец","oblast":"Бургас","adres":"8313, с. Зорница","tip":"село"}},{"type":"Feature","geometry":{"type":"Point","coordinates":[26.94450310027145,42.303538999745726]},"properties":{"selo":"Кубадин","namestnichestvo":"Ямболска","obshtina":"Средец","oblast":"Бургас","adres":"8335, с. Кубадин","tip":"село"}},{"type":"Feature","geometry":{"type":"Point","coordinates":[26.9821011998511,42.25854950027575]},"properties":{"selo":"Синьо камене","namestnichestvo":"Ямболска","obshtina":"Средец","oblast":"Бургас","adres":"8332, с. Синьо камене","tip":"село"}},{"type":"Feature","geometry":{"type":"Point","coordinates":[26.8830650003371,42.32199820006973]},"properties":{"selo":"Александрово","namestnichestvo":"Ямболска","obshtina":"Стралджа","oblast":"Ямбол","adres":"8653, с. Александрово","tip":"село"}},{"type":"Feature","geometry":{"type":"Point","coordinates":[26.856126200324344,42.45286659988124]},"properties":{"selo":"Богорово","namestnichestvo":"Ямболска","obshtina":"Стралджа","oblast":"Ямбол","adres":"8687, с. Богорово","tip":"село"}},{"type":"Feature","geometry":{"type":"Point","coordinates":[26.694417100042635,42.543783799733305]},"properties":{"selo":"Воденичане","namestnichestvo":"Ямболска","obshtina":"Стралджа","oblast":"Ямбол","adres":"8639, с. Воденичане","tip":"село"}},{"type":"Feature","geometry":{"type":"Point","coordinates":[26.819155099660193,42.38549159998747]},"properties":{"selo":"Войника","namestnichestvo":"Ямболска","obshtina":"Стралджа","oblast":"Ямбол","adres":"8661, с. Войника","tip":"село"}},{"type":"Feature","geometry":{"type":"Point","coordinates":[26.657238399614627,42.512294399850326]},"properties":{"selo":"Джинот","namestnichestvo":"Ямболска","obshtina":"Стралджа","oblast":"Ямбол","adres":"8691, с. Джинот","tip":"село"}},{"type":"Feature","geometry":{"type":"Point","coordinates":[26.725458199632413,42.487851100216254]},"properties":{"selo":"Иречеково","namestnichestvo":"Ямболска","obshtina":"Стралджа","oblast":"Ямбол","adres":"8697, с. Иречеково","tip":"село"}},{"type":"Feature","geometry":{"type":"Point","coordinates":[26.738626800113373,42.33771670013772]},"properties":{"selo":"Каменец","namestnichestvo":"Ямболска","obshtina":"Стралджа","oblast":"Ямбол","adres":"8655, с. Каменец","tip":"село"}},{"type":"Feature","geometry":{"type":"Point","coordinates":[26.79771839991433,42.43625740021657]},"properties":{"selo":"Люлин","namestnichestvo":"Ямболска","obshtina":"Стралджа","oblast":"Ямбол","adres":"8685, с. Люлин","tip":"село"}},{"type":"Feature","geometry":{"type":"Point","coordinates":[26.8238362996575,42.46287830008752]},"properties":{"selo":"Недялско","namestnichestvo":"Ямболска","obshtina":"Стралджа","oblast":"Ямбол","adres":"8684, с. Недялско","tip":"село"}},{"type":"Feature","geometry":{"type":"Point","coordinates":[26.739651999736452,42.5319135997239]},"properties":{"selo":"Палаузово","namestnichestvo":"Ямболска","obshtina":"Стралджа","oblast":"Ямбол","adres":"8698, с. Палаузово","tip":"село"}},{"type":"Feature","geometry":{"type":"Point","coordinates":[26.645958799869316,42.42479039978449]},"properties":{"selo":"Победа","namestnichestvo":"Ямболска","obshtina":"Стралджа","oblast":"Ямбол","adres":"8679, с. Победа","tip":"село"}},{"type":"Feature","geometry":{"type":"Point","coordinates":[26.821126100411625,42.302729699723436]},"properties":{"selo":"Поляна","namestnichestvo":"Ямболска","obshtina":"Стралджа","oblast":"Ямбол","adres":"8654, с. Поляна","tip":"село"}},{"type":"Feature","geometry":{"type":"Point","coordinates":[26.929014599670953,42.41711229969092]},"properties":{"selo":"Правдино","namestnichestvo":"Ямболска","obshtina":"Стралджа","oblast":"Ямбол","adres":"8695, с. Правдино","tip":"село"}},{"type":"Feature","geometry":{"type":"Point","coordinates":[26.849452599908954,42.432177000020616]},"properties":{"selo":"Първенец","namestnichestvo":"Ямболска","obshtina":"Стралджа","oblast":"Ямбол","adres":"8694, с. Първенец","tip":"село"}},{"type":"Feature","geometry":{"type":"Point","coordinates":[26.709392199983544,42.36266889982743]},"properties":{"selo":"Саранско","namestnichestvo":"Ямболска","obshtina":"Стралджа","oblast":"Ямбол","adres":"8659, с. Саранско","tip":"село"}},{"type":"Feature","geometry":{"type":"Point","coordinates":[26.74434979970185,42.37834759981843]},"properties":{"selo":"Тамарино","namestnichestvo":"Ямболска","obshtina":"Стралджа","oblast":"Ямбол","adres":"8658, с. Тамарино","tip":"село"}},{"type":"Feature","geometry":{"type":"Point","coordinates":[26.656348400035103,42.36781680010537]},"properties":{"selo":"Асеново","namestnichestvo":"Ямболска","obshtina":"Тунджа","oblast":"Ямбол","adres":"8667, с. Асеново","tip":"село"}},{"type":"Feature","geometry":{"type":"Point","coordinates":[26.39749490012543,42.47865960013157]},"properties":{"selo":"Безмер","namestnichestvo":"Ямболска","obshtina":"Тунджа","oblast":"Ямбол","adres":"8637, с. Безмер","tip":"село"}},{"type":"Feature","geometry":{"type":"Point","coordinates":[26.35470469990034,42.43092570006854]},"properties":{"selo":"Болярско","namestnichestvo":"Ямболска","obshtina":"Тунджа","oblast":"Ямбол","adres":"8631, с. Болярско","tip":"село"}},{"type":"Feature","geometry":{"type":"Point","coordinates":[26.3611076999044,42.3556396002729]},"properties":{"selo":"Ботево","namestnichestvo":"Ямболска","obshtina":"Тунджа","oblast":"Ямбол","adres":"8638, с. Ботево","tip":"село"}},{"type":"Feature","geometry":{"type":"Point","coordinates":[26.302511099672788,42.3939430001345]},"properties":{"selo":"Бояджик","namestnichestvo":"Ямболска","obshtina":"Тунджа","oblast":"Ямбол","adres":"8640, с. Бояджик","tip":"село"}},{"type":"Feature","geometry":{"type":"Point","coordinates":[26.38606890014165,42.312390400311706]},"properties":{"selo":"Видинци","namestnichestvo":"Ямболска","obshtina":"Тунджа","oblast":"Ямбол","adres":"8671, с. Видинци","tip":"село"}},{"type":"Feature","geometry":{"type":"Point","coordinates":[26.435821100412515,42.31811769993524]},"properties":{"selo":"Генерал Инзово","namestnichestvo":"Ямболска","obshtina":"Тунджа","oblast":"Ямбол","adres":"8670, с. Генерал Инзово","tip":"село"}},{"type":"Feature","geometry":{"type":"Point","coordinates":[26.255325200217346,42.42814300024932]},"properties":{"selo":"Гълъбинци","namestnichestvo":"Ямболска","obshtina":"Тунджа","oblast":"Ямбол","adres":"8642, с. Гълъбинци","tip":"село"}},{"type":"Feature","geometry":{"type":"Point","coordinates":[26.448830099911895,42.53770320002635]},"properties":{"selo":"Дражево","namestnichestvo":"Ямболска","obshtina":"Тунджа","oblast":"Ямбол","adres":"8634, с. Дражево","tip":"село"}},{"type":"Feature","geometry":{"type":"Point","coordinates":[26.522368200397857,42.56223290010521]},"properties":{"selo":"Завой","namestnichestvo":"Ямболска","obshtina":"Тунджа","oblast":"Ямбол","adres":"8633, с. Завой","tip":"село"}},{"type":"Feature","geometry":{"type":"Point","coordinates":[26.20773429980767,42.39206409981436]},"properties":{"selo":"Златари","namestnichestvo":"Ямболска","obshtina":"Тунджа","oblast":"Ямбол","adres":"8641, с. Златари","tip":"село"}},{"type":"Feature","geometry":{"type":"Point","coordinates":[26.478970500088828,42.528215399738606]},"properties":{"selo":"Кабиле","namestnichestvo":"Ямболска","obshtina":"Тунджа","oblast":"Ямбол","adres":"8629, с. Кабиле","tip":"село"}},{"type":"Feature","geometry":{"type":"Point","coordinates":[26.60308719970307,42.430319100290184]},"properties":{"selo":"Калчево","namestnichestvo":"Ямболска","obshtina":"Тунджа","oblast":"Ямбол","adres":"8677, с. Калчево","tip":"село"}},{"type":"Feature","geometry":{"type":"Point","coordinates":[26.628105699879047,42.30720419976293]},"properties":{"selo":"Каравелово","namestnichestvo":"Ямболска","obshtina":"Тунджа","oblast":"Ямбол","adres":"8647, с. Каравелово","tip":"село"}},{"type":"Feature","geometry":{"type":"Point","coordinates":[26.567608700189144,42.27178650028229]},"properties":{"selo":"Коневец","namestnichestvo":"Ямболска","obshtina":"Тунджа","oblast":"Ямбол","adres":"8623, с. Коневец","tip":"село"}},{"type":"Feature","geometry":{"type":"Point","coordinates":[26.404056200350542,42.27074630000637]},"properties":{"selo":"Крумово","namestnichestvo":"Ямболска","obshtina":"Тунджа","oblast":"Ямбол","adres":"8649, с. Крумово","tip":"село"}},{"type":"Feature","geometry":{"type":"Point","coordinates":[26.537879899990557,42.447088200135425]},"properties":{"selo":"Кукорево","namestnichestvo":"Ямболска","obshtina":"Тунджа","oblast":"Ямбол","adres":"8673, с. Кукорево","tip":"село"}},{"type":"Feature","geometry":{"type":"Point","coordinates":[27.24120050038207,42.5144137999657]},"properties":{"selo":"Равнец","namestnichestvo":"Карнобатска","obshtina":"Бургас","oblast":"Бургас","adres":"8117, с. Равнец","tip":"село"}},{"type":"Feature","geometry":{"type":"Point","coordinates":[26.515843699658372,42.28160299990575]},"properties":{"selo":"Маломир","namestnichestvo":"Ямболска","obshtina":"Тунджа","oblast":"Ямбол","adres":"8650, с. Маломир","tip":"село"}},{"type":"Feature","geometry":{"type":"Point","coordinates":[26.3188387004105,42.3255189999602]},"properties":{"selo":"Меден кладенец","namestnichestvo":"Ямболска","obshtina":"Тунджа","oblast":"Ямбол","adres":"8639, с. Меден кладенец","tip":"село"}},{"type":"Feature","geometry":{"type":"Point","coordinates":[26.339565500214917,42.25905270021991]},"properties":{"selo":"Миладиновци","namestnichestvo":"Ямболска","obshtina":"Тунджа","oblast":"Ямбол","adres":"8657, с. Миладиновци","tip":"село"}},{"type":"Feature","geometry":{"type":"Point","coordinates":[26.595669999946622,42.50119569984489]},"properties":{"selo":"Могила","namestnichestvo":"Ямболска","obshtina":"Тунджа","oblast":"Ямбол","adres":"8627, с. Могила","tip":"село"}},{"type":"Feature","geometry":{"type":"Point","coordinates":[26.541146600165085,42.41052800017355]},"properties":{"selo":"Окоп","namestnichestvo":"Ямболска","obshtina":"Тунджа","oblast":"Ямбол","adres":"8669, с. Окоп","tip":"село"}},{"type":"Feature","geometry":{"type":"Point","coordinates":[26.411751699978637,42.396211100078276]},"properties":{"selo":"Роза","namestnichestvo":"Ямболска","obshtina":"Тунджа","oblast":"Ямбол","adres":"8630, с. Роза","tip":"село"}},{"type":"Feature","geometry":{"type":"Point","coordinates":[26.286108000026985,42.339572799856604]},"properties":{"selo":"Савино","namestnichestvo":"Ямболска","obshtina":"Тунджа","oblast":"Ямбол","adres":"8643, с. Савино","tip":"село"}},{"type":"Feature","geometry":{"type":"Point","coordinates":[26.637258399848648,42.376874800066325]},"properties":{"selo":"Симеоново","namestnichestvo":"Ямболска","obshtina":"Тунджа","oblast":"Ямбол","adres":"8665, с. Симеоново","tip":"село"}},{"type":"Feature","geometry":{"type":"Point","coordinates":[26.665984900277365,42.330368799831]},"properties":{"selo":"Сламино","namestnichestvo":"Ямболска","obshtina":"Тунджа","oblast":"Ямбол","adres":"8663, с. Сламино","tip":"село"}},{"type":"Feature","geometry":{"type":"Point","coordinates":[26.530040599848423,42.34759319995803]},"properties":{"selo":"Тенево","namestnichestvo":"Ямболска","obshtina":"Тунджа","oblast":"Ямбол","adres":"8672, с. Тенево","tip":"село"}},{"type":"Feature","geometry":{"type":"Point","coordinates":[26.680205100070967,42.473072499903076]},"properties":{"selo":"Търнава","namestnichestvo":"Ямболска","obshtina":"Тунджа","oblast":"Ямбол","adres":"8699, с. Търнава","tip":"село"}},{"type":"Feature","geometry":{"type":"Point","coordinates":[26.405021200273165,42.527033699981445]},"properties":{"selo":"Хаджидимитрово","namestnichestvo":"Ямболска","obshtina":"Тунджа","oblast":"Ямбол","adres":"8635, с. Хаджидимитрово","tip":"село"}},{"type":"Feature","geometry":{"type":"Point","coordinates":[26.510442799998156,42.39079529998142]},"properties":{"selo":"Ханово","namestnichestvo":"Ямболска","obshtina":"Тунджа","oblast":"Ямбол","adres":"8668, с. Ханово","tip":"село"}},{"type":"Feature","geometry":{"type":"Point","coordinates":[26.622026200276785,42.480279199946985]},"properties":{"selo":"Чарган","namestnichestvo":"Ямболска","obshtina":"Тунджа","oblast":"Ямбол","adres":"8628, с. Чарган","tip":"село"}},{"type":"Feature","geometry":{"type":"Point","coordinates":[26.684189900008846,42.39851410015392]},"properties":{"selo":"Челник","namestnichestvo":"Ямболска","obshtina":"Тунджа","oblast":"Ямбол","adres":"8678, с. Челник","tip":"село"}},{"type":"Feature","geometry":{"type":"Point","coordinates":[26.336938999699008,42.084564599790575]},"properties":{"selo":"Тополовград","namestnichestvo":"Тополовградска","obshtina":"Тополовград","oblast":"Хасково","adres":"6560, гр. Тополовград","tip":"център"}},{"type":"Feature","geometry":{"type":"Point","coordinates":[26.30977789989109,42.14713530030743]},"properties":{"selo":"Доброселец","namestnichestvo":"Тополовградска","obshtina":"Тополовград","oblast":"Хасково","adres":"6560, с. Доброселец","tip":"село"}},{"type":"Feature","geometry":{"type":"Point","coordinates":[26.269002399862735,42.1633699003164]},"properties":{"selo":"Каменна река","namestnichestvo":"Тополовградска","obshtina":"Тополовград","oblast":"Хасково","adres":"6546, с. Каменна река","tip":"село"}},{"type":"Feature","geometry":{"type":"Point","coordinates":[26.42191380000207,42.073297300065335]},"properties":{"selo":"Капитан Петко войвода","namestnichestvo":"Тополовградска","obshtina":"Тополовград","oblast":"Хасково","adres":"6561, с. Капитан Петко войвода","tip":"село"}},{"type":"Feature","geometry":{"type":"Point","coordinates":[26.50231969959988,42.10746630027349]},"properties":{"selo":"Княжево","namestnichestvo":"Тополовградска","obshtina":"Тополовград","oblast":"Хасково","adres":"6466, с. Княжево","tip":"село"}},{"type":"Feature","geometry":{"type":"Point","coordinates":[26.400352900083345,42.0467966000213]},"properties":{"selo":"Мрамор","namestnichestvo":"Тополовградска","obshtina":"Тополовград","oblast":"Хасково","adres":"6562, с. Мрамор","tip":"село"}},{"type":"Feature","geometry":{"type":"Point","coordinates":[26.370986500033307,42.07120129987983]},"properties":{"selo":"Орешник","namestnichestvo":"Тополовградска","obshtina":"Тополовград","oblast":"Хасково","adres":"6561, с. Орешник","tip":"село"}},{"type":"Feature","geometry":{"type":"Point","coordinates":[26.1842224998403,42.11780079983367]},"properties":{"selo":"Орлов дол","namestnichestvo":"Тополовградска","obshtina":"Тополовград","oblast":"Хасково","adres":"6545, с. Орлов дол","tip":"село"}},{"type":"Feature","geometry":{"type":"Point","coordinates":[26.376961999878496,41.95699650013881]},"properties":{"selo":"Планиново","namestnichestvo":"Тополовградска","obshtina":"Тополовград","oblast":"Хасково","adres":"6560, с. Планиново","tip":"село"}},{"type":"Feature","geometry":{"type":"Point","coordinates":[26.495727400310926,41.93141970003534]},"properties":{"selo":"Радовец","namestnichestvo":"Тополовградска","obshtina":"Тополовград","oblast":"Хасково","adres":"6564, с. Радовец","tip":"село"}},{"type":"Feature","geometry":{"type":"Point","coordinates":[26.464361399845803,42.12215329967218]},"properties":{"selo":"Синапово","namestnichestvo":"Тополовградска","obshtina":"Тополовград","oblast":"Хасково","adres":"6567, с. Синапово","tip":"село"}},{"type":"Feature","geometry":{"type":"Point","coordinates":[26.484577599937655,42.04970109995358]},"properties":{"selo":"Срем","namestnichestvo":"Тополовградска","obshtina":"Тополовград","oblast":"Хасково","adres":"6565, с. Срем","tip":"село"}},{"type":"Feature","geometry":{"type":"Point","coordinates":[26.458996999633918,42.02288730009273]},"properties":{"selo":"Устрем","namestnichestvo":"Тополовградска","obshtina":"Тополовград","oblast":"Хасково","adres":"6563, с. Устрем","tip":"село"}},{"type":"Feature","geometry":{"type":"Point","coordinates":[26.25467670012555,42.06122219986479]},"properties":{"selo":"Хлябово","namestnichestvo":"Тополовградска","obshtina":"Тополовград","oblast":"Хасково","adres":"6568, с. Хлябово","tip":"село"}},{"type":"Feature","geometry":{"type":"Point","coordinates":[26.386446199747493,42.14250949989661]},"properties":{"selo":"Чукарово","namestnichestvo":"Тополовградска","obshtina":"Тополовград","oblast":"Хасково","adres":"6560, с. Чукарово","tip":"село"}},{"type":"Feature","geometry":{"type":"Point","coordinates":[26.8126415996897,42.149391900278644]},"properties":{"selo":"Болярово","namestnichestvo":"Тополовградска","obshtina":"Болярово","oblast":"Ямбол","adres":"8720, гр. Болярово, ул. \"Г. Димитров\" № 13","tip":"град"}},{"type":"Feature","geometry":{"type":"Point","coordinates":[26.897759300394906,42.07295279967468]},"properties":{"selo":"Воден","namestnichestvo":"Тополовградска","obshtina":"Болярово","oblast":"Ямбол","adres":"8750, с. Воден","tip":"село"}},{"type":"Feature","geometry":{"type":"Point","coordinates":[26.92432000040288,42.19487769995398]},"properties":{"selo":"Голямо Крушево","namestnichestvo":"Тополовградска","obshtina":"Болярово","oblast":"Ямбол","adres":"8729, с. Голямо Крушево","tip":"село"}},{"type":"Feature","geometry":{"type":"Point","coordinates":[26.818255300359237,42.051894800068126]},"properties":{"selo":"Голямо Шарково","namestnichestvo":"Тополовградска","obshtina":"Болярово","oblast":"Ямбол","adres":"8753, с. Голямо Шарково","tip":"село"}},{"type":"Feature","geometry":{"type":"Point","coordinates":[26.937466099882606,42.11516510011879]},"properties":{"selo":"Горска поляна","namestnichestvo":"Тополовградска","obshtina":"Болярово","oblast":"Ямбол","adres":"8721, с. Горска поляна","tip":"село"}},{"type":"Feature","geometry":{"type":"Point","coordinates":[26.778631799851222,42.201320699863764]},"properties":{"selo":"Дъбово","namestnichestvo":"Тополовградска","obshtina":"Болярово","oblast":"Ямбол","adres":"8736, с. Дъбово","tip":"село"}},{"type":"Feature","geometry":{"type":"Point","coordinates":[26.706181799922835,42.15422489978732]},"properties":{"selo":"Златиница","namestnichestvo":"Тополовградска","obshtina":"Болярово","oblast":"Ямбол","adres":"8746, с. Златиница","tip":"село"}},{"type":"Feature","geometry":{"type":"Point","coordinates":[26.776153799834923,42.042437600062314]},"properties":{"selo":"Иглика","namestnichestvo":"Тополовградска","obshtina":"Болярово","oblast":"Ямбол","adres":"8745, с. Иглика","tip":"село"}},{"type":"Feature","geometry":{"type":"Point","coordinates":[26.790886800213485,42.255872200027234]},"properties":{"selo":"Камен връх","namestnichestvo":"Тополовградска","obshtina":"Болярово","oblast":"Ямбол","adres":"8728, с. Камен връх","tip":"село"}},{"type":"Feature","geometry":{"type":"Point","coordinates":[26.837997000436552,42.10142319973825]},"properties":{"selo":"Малко Шарково","namestnichestvo":"Тополовградска","obshtina":"Болярово","oblast":"Ямбол","adres":"8751, с. Малко Шарково","tip":"село"}},{"type":"Feature","geometry":{"type":"Point","coordinates":[26.77968840008501,42.11813380025625]},"properties":{"selo":"Мамарчево","namestnichestvo":"Тополовградска","obshtina":"Болярово","oblast":"Ямбол","adres":"8743, с. Мамарчево","tip":"село"}},{"type":"Feature","geometry":{"type":"Point","coordinates":[26.733939099906706,42.20775619993493]},"properties":{"selo":"Попово","namestnichestvo":"Тополовградска","obshtina":"Болярово","oblast":"Ямбол","adres":"8735, с. Попово","tip":"село"}},{"type":"Feature","geometry":{"type":"Point","coordinates":[26.87908300044795,42.14936110002742]},"properties":{"selo":"Ружица","namestnichestvo":"Тополовградска","obshtina":"Болярово","oblast":"Ямбол","adres":"8722, с. Ружица","tip":"село"}},{"type":"Feature","geometry":{"type":"Point","coordinates":[26.832866899715352,42.21411989971776]},"properties":{"selo":"Стефан Караджово","namestnichestvo":"Тополовградска","obshtina":"Болярово","oblast":"Ямбол","adres":"8725, с. Стефан Караджово","tip":"село"}},{"type":"Feature","geometry":{"type":"Point","coordinates":[27.00434610038339,42.06247500019194]},"properties":{"selo":"Странджа","namestnichestvo":"Тополовградска","obshtina":"Болярово","oblast":"Ямбол","adres":"8758, с. Странджа","tip":"село"}},{"type":"Feature","geometry":{"type":"Point","coordinates":[26.573560300356192,42.175029600103464]},"properties":{"selo":"Елхово","namestnichestvo":"Тополовградска","obshtina":"Елхово","oblast":"Ямбол","adres":"8700, гр. Елхово, ул. \"Търговска\" № 22","tip":"град"}},{"type":"Feature","geometry":{"type":"Point","coordinates":[26.67795999997018,42.00937349984827]},"properties":{"selo":"Вълча поляна","namestnichestvo":"Тополовградска","obshtina":"Елхово","oblast":"Ямбол","adres":"8748, с. Вълча поляна","tip":"село"}},{"type":"Feature","geometry":{"type":"Point","coordinates":[26.534612400315478,42.09895149971275]},"properties":{"selo":"Гранитово","namestnichestvo":"Тополовградска","obshtina":"Елхово","oblast":"Ямбол","adres":"8740, с. Гранитово","tip":"село"}},{"type":"Feature","geometry":{"type":"Point","coordinates":[26.66617770029691,42.173443200048695]},"properties":{"selo":"Добрич","namestnichestvo":"Тополовградска","obshtina":"Елхово","oblast":"Ямбол","adres":"8724, с. Добрич","tip":"село"}},{"type":"Feature","geometry":{"type":"Point","coordinates":[26.704883299552687,42.24268119974161]},"properties":{"selo":"Жребино","namestnichestvo":"Тополовградска","obshtina":"Елхово","oblast":"Ямбол","adres":"8733, с. Жребино","tip":"село"}},{"type":"Feature","geometry":{"type":"Point","coordinates":[26.525342300419705,42.17070559994497]},"properties":{"selo":"Изгрев","namestnichestvo":"Тополовградска","obshtina":"Елхово","oblast":"Ямбол","adres":"8717, с. Изгрев","tip":"село"}},{"type":"Feature","geometry":{"type":"Point","coordinates":[26.61548099965822,42.22226490020176]},"properties":{"selo":"Кирилово","namestnichestvo":"Тополовградска","obshtina":"Елхово","oblast":"Ямбол","adres":"8741, с. Кирилово","tip":"село"}},{"type":"Feature","geometry":{"type":"Point","coordinates":[26.572673199640068,41.99484760025766]},"properties":{"selo":"Лесово","namestnichestvo":"Тополовградска","obshtina":"Елхово","oblast":"Ямбол","adres":"8754, с. Лесово","tip":"село"}},{"type":"Feature","geometry":{"type":"Point","coordinates":[26.415594999987917,42.19815569976351]},"properties":{"selo":"Малък манастир","namestnichestvo":"Тополовградска","obshtina":"Елхово","oblast":"Ямбол","adres":"8742, с. Малък манастир","tip":"село"}},{"type":"Feature","geometry":{"type":"Point","coordinates":[26.56448150029344,42.04707940033227]},"properties":{"selo":"Мелница","namestnichestvo":"Тополовградска","obshtina":"Елхово","oblast":"Ямбол","adres":"8755, с. Мелница","tip":"село"}},{"type":"Feature","geometry":{"type":"Point","coordinates":[26.472568499909702,42.18430810016032]},"properties":{"selo":"Пчела","namestnichestvo":"Тополовградска","obshtina":"Елхово","oblast":"Ямбол","adres":"8718, с. Пчела","tip":"село"}},{"type":"Feature","geometry":{"type":"Point","coordinates":[26.65337950036045,42.076775099683765]},"properties":{"selo":"Раздел","namestnichestvo":"Тополовградска","obshtina":"Елхово","oblast":"Ямбол","adres":"8747, с. Раздел","tip":"село"}},{"type":"Feature","geometry":{"type":"Point","coordinates":[26.551634800314755,42.22381230028797]},"properties":{"selo":"Трънково","namestnichestvo":"Тополовградска","obshtina":"Елхово","oblast":"Ямбол","adres":"8719, с. Трънково","tip":"село"}},{"type":"Feature","geometry":{"type":"Point","coordinates":[26.60633229988656,42.112770200001975]},"properties":{"selo":"Чернозем","namestnichestvo":"Тополовградска","obshtina":"Елхово","oblast":"Ямбол","adres":"8739, с. Чернозем","tip":"село"}},{"type":"Feature","geometry":{"type":"Point","coordinates":[26.111554999815343,42.18840659986338]},"properties":{"selo":"Полски градец","namestnichestvo":"Тополовградска","obshtina":"Раднево","oblast":"Стара Загора","adres":"6276, с. Полски градец","tip":"село"}},{"type":"Feature","geometry":{"type":"Point","coordinates":[26.29364219995933,42.223322600137045]},"properties":{"selo":"Генерал Тошево","namestnichestvo":"Тополовградска","obshtina":"Тунджа","oblast":"Ямбол","adres":"8625, с. Генерал Тошево","tip":"село"}},{"type":"Feature","geometry":{"type":"Point","coordinates":[26.349773799695107,42.2084067999325]},"properties":{"selo":"Голям манастир","namestnichestvo":"Тополовградска","obshtina":"Тунджа","oblast":"Ямбол","adres":"8624, с. Голям манастир","tip":"село"}},{"type":"Feature","geometry":{"type":"Point","coordinates":[26.213053600100743,42.24336859987549]},"properties":{"selo":"Овчи кладенец","namestnichestvo":"Тополовградска","obshtina":"Тунджа","oblast":"Ямбол","adres":"8660, с. Овчи кладенец","tip":"село"}},{"type":"Feature","geometry":{"type":"Point","coordinates":[26.254267900195956,42.26639520014638]},"properties":{"selo":"Скалица","namestnichestvo":"Тополовградска","obshtina":"Тунджа","oblast":"Ямбол","adres":"8645, с. Скалица","tip":"село"}},{"type":"Feature","geometry":{"type":"Point","coordinates":[26.984561200324062,42.64708459992119]},"properties":{"selo":"Карнобат","namestnichestvo":"Карнобатска","obshtina":"Карнобат","oblast":"Бургас","adres":"8400, гр. Карнобат, ул. \"Карл Маркс\" № 1","tip":"център"}},{"type":"Feature","geometry":{"type":"Point","coordinates":[27.10687800040073,42.51856899972821]},"properties":{"selo":"Аспарухово","namestnichestvo":"Карнобатска","obshtina":"Карнобат","oblast":"Бургас","adres":"8485, с. Аспарухово","tip":"село"}},{"type":"Feature","geometry":{"type":"Point","coordinates":[26.91206889962725,42.47227850015429]},"properties":{"selo":"Добриново","namestnichestvo":"Карнобатска","obshtina":"Карнобат","oblast":"Бургас","adres":"8477, с. Добриново","tip":"село"}},{"type":"Feature","geometry":{"type":"Point","coordinates":[26.983172899866535,42.569129900024855]},"properties":{"selo":"Драганци","namestnichestvo":"Карнобатска","obshtina":"Карнобат","oblast":"Бургас","adres":"8489, с. Драганци","tip":"село"}},{"type":"Feature","geometry":{"type":"Point","coordinates":[26.980629000339295,42.52737420032664]},"properties":{"selo":"Екзарх Антимово","namestnichestvo":"Карнобатска","obshtina":"Карнобат","oblast":"Бургас","adres":"8490, с. Екзарх Антимово","tip":"село"}},{"type":"Feature","geometry":{"type":"Point","coordinates":[26.903346199827972,42.57106389987647]},"properties":{"selo":"Железник","namestnichestvo":"Карнобатска","obshtina":"Карнобат","oblast":"Бургас","adres":"8488, с. Железник","tip":"село"}},{"type":"Feature","geometry":{"type":"Point","coordinates":[26.976239399771437,42.46257720003652]},"properties":{"selo":"Житосвят","namestnichestvo":"Карнобатска","obshtina":"Карнобат","oblast":"Бургас","adres":"8475, с. Житосвят","tip":"село"}},{"type":"Feature","geometry":{"type":"Point","coordinates":[26.87780709989371,42.68243890013683]},"properties":{"selo":"Искра","namestnichestvo":"Карнобатска","obshtina":"Карнобат","oblast":"Бургас","adres":"8481, с. Искра","tip":"село"}},{"type":"Feature","geometry":{"type":"Point","coordinates":[26.928938199752675,42.60980000022297]},"properties":{"selo":"Крумово градище","namestnichestvo":"Карнобатска","obshtina":"Карнобат","oblast":"Бургас","adres":"8477, с. Крумово градище","tip":"село"}},{"type":"Feature","geometry":{"type":"Point","coordinates":[27.057276399992297,42.54367550019597]},"properties":{"selo":"Крушово","namestnichestvo":"Карнобатска","obshtina":"Карнобат","oblast":"Бургас","adres":"8482, с. Крушово","tip":"село"}},{"type":"Feature","geometry":{"type":"Point","coordinates":[26.942730699961384,42.732699500066836]},"properties":{"selo":"Невестино","namestnichestvo":"Карнобатска","obshtina":"Карнобат","oblast":"Бургас","adres":"8431, с. Невестино","tip":"село"}},{"type":"Feature","geometry":{"type":"Point","coordinates":[27.004748000353274,42.776095299932344]},"properties":{"selo":"Раклица","namestnichestvo":"Карнобатска","obshtina":"Карнобат","oblast":"Бургас","adres":"8439, с. Раклица","tip":"село"}},{"type":"Feature","geometry":{"type":"Point","coordinates":[26.87832389977834,42.52117109983011]},"properties":{"selo":"Сан Стефано","namestnichestvo":"Карнобатска","obshtina":"Карнобат","oblast":"Бургас","adres":"8484, с. Сан Стефано","tip":"село"}},{"type":"Feature","geometry":{"type":"Point","coordinates":[26.97194529999974,42.707583100053384]},"properties":{"selo":"Сигмен","namestnichestvo":"Карнобатска","obshtina":"Карнобат","oblast":"Бургас","adres":"8438, с. Сигмен","tip":"село"}},{"type":"Feature","geometry":{"type":"Point","coordinates":[26.92757879989447,42.52962849993302]},"properties":{"selo":"Смолник(Тас Тепе)","namestnichestvo":"Карнобатска","obshtina":"Карнобат","oblast":"Бургас","adres":"(8491) с. Смолник (Тас Тепе)","tip":"село"}},{"type":"Feature","geometry":{"type":"Point","coordinates":[27.092926100433054,42.47546780004528]},"properties":{"selo":"Сърнево","namestnichestvo":"Карнобатска","obshtina":"Карнобат","oblast":"Бургас","adres":"8479, с. Сърнево","tip":"село"}},{"type":"Feature","geometry":{"type":"Point","coordinates":[27.080637200346928,42.608921000099954]},"properties":{"selo":"Хаджиите","namestnichestvo":"Карнобатска","obshtina":"Карнобат","oblast":"Бургас","adres":"8492, с. Хаджиите","tip":"село"}},{"type":"Feature","geometry":{"type":"Point","coordinates":[26.87403720032797,42.60991939993536]},"properties":{"selo":"Церковски","namestnichestvo":"Карнобатска","obshtina":"Карнобат","oblast":"Бургас","adres":"8472, с. Церковски","tip":"село"}},{"type":"Feature","geometry":{"type":"Point","coordinates":[27.044855300235653,42.48047039988573]},"properties":{"selo":"Черково","namestnichestvo":"Карнобатска","obshtina":"Карнобат","oblast":"Бургас","adres":"8478, с. Черково","tip":"село"}},{"type":"Feature","geometry":{"type":"Point","coordinates":[27.25467249966372,42.70298590022292]},"properties":{"selo":"Айтос","namestnichestvo":"Карнобатска","obshtina":"Айтос","oblast":"Бургас","adres":"8500, гр. Айтос, ул. \"Цар Освободител\" № 16","tip":"град"}},{"type":"Feature","geometry":{"type":"Point","coordinates":[27.19336220034987,42.64368099981336]},"properties":{"selo":"Караново","namestnichestvo":"Карнобатска","obshtina":"Айтос","oblast":"Бургас","adres":"8532, с. Караново","tip":"село"}},{"type":"Feature","geometry":{"type":"Point","coordinates":[27.28808029980272,42.72720660021622]},"properties":{"selo":"Лясково","namestnichestvo":"Карнобатска","obshtina":"Айтос","oblast":"Бургас","adres":"8518, с. Лясково","tip":"село"}},{"type":"Feature","geometry":{"type":"Point","coordinates":[27.28808029980272,42.72720660021622]},"properties":{"selo":"Лясково","namestnichestvo":"Карнобатска","obshtina":"Айтос","oblast":"Бургас","adres":"8518, с. Лясково","tip":"село"}},{"type":"Feature","geometry":{"type":"Point","coordinates":[27.34674010010783,42.74263819991912]},"properties":{"selo":"Пещерско","namestnichestvo":"Карнобатска","obshtina":"Айтос","oblast":"Бургас","adres":"8525, с. Пещерско","tip":"село"}},{"type":"Feature","geometry":{"type":"Point","coordinates":[27.196499800041636,42.67877679999805]},"properties":{"selo":"Пирне","namestnichestvo":"Карнобатска","obshtina":"Айтос","oblast":"Бургас","adres":"8528, с. Пирне","tip":"село"}},{"type":"Feature","geometry":{"type":"Point","coordinates":[27.320787099609788,42.665058499882974]},"properties":{"selo":"Съдиево","namestnichestvo":"Карнобатска","obshtina":"Айтос","oblast":"Бургас","adres":"8522, с. Съдиево","tip":"село"}},{"type":"Feature","geometry":{"type":"Point","coordinates":[27.122141299647737,42.735620799876976]},"properties":{"selo":"Тополица","namestnichestvo":"Карнобатска","obshtina":"Айтос","oblast":"Бургас","adres":"8549, с. Тополица","tip":"село"}},{"type":"Feature","geometry":{"type":"Point","coordinates":[27.19999160006001,42.60423960011368]},"properties":{"selo":"Винарско","namestnichestvo":"Карнобатска","obshtina":"Камено","oblast":"Бургас","adres":"8118, с. Винарско","tip":"село"}},{"type":"Feature","geometry":{"type":"Point","coordinates":[27.23685539965843,42.5805748999028]},"properties":{"selo":"Кръстина","namestnichestvo":"Карнобатска","obshtina":"Кемено","oblast":"Бургас","adres":"8121, с. Кръстина","tip":"село"}},{"type":"Feature","geometry":{"type":"Point","coordinates":[27.199079800165162,42.812893000144676]},"properties":{"selo":"Вресово","namestnichestvo":"Карнобатска","obshtina":"Руен","oblast":"Бургас","adres":"8560, с. Вресово","tip":"село"}},{"type":"Feature","geometry":{"type":"Point","coordinates":[27.190207600041333,42.87794269998935]},"properties":{"selo":"Дъскотна","namestnichestvo":"Карнобатска","obshtina":"Руен","oblast":"Бургас","adres":"8561, с. Дъскотна","tip":"село"}},{"type":"Feature","geometry":{"type":"Point","coordinates":[27.07947260015807,42.87151799976119]},"properties":{"selo":"Люляково","namestnichestvo":"Карнобатска","obshtina":"Руен","oblast":"Бургас","adres":"8570, с. Люляково","tip":"село"}},{"type":"Feature","geometry":{"type":"Point","coordinates":[27.07947260015807,42.87151799976119]},"properties":{"selo":"Люляково","namestnichestvo":"Карнобатска","obshtina":"Руен","oblast":"Бургас","adres":"8570, с. Люляково","tip":"село"}},{"type":"Feature","geometry":{"type":"Point","coordinates":[27.331739700015266,42.79456229967944]},"properties":{"selo":"Преображенци","namestnichestvo":"Карнобатска","obshtina":"Руен","oblast":"Бургас","adres":"8541, с. Преображенци","tip":"село"}},{"type":"Feature","geometry":{"type":"Point","coordinates":[27.282767900367684,42.800102600030655]},"properties":{"selo":"Руен","namestnichestvo":"Карнобатска","obshtina":"Руен","oblast":"Бургас","adres":"8540, с. Руен","tip":"село"}},{"type":"Feature","geometry":{"type":"Point","coordinates":[27.033401999552087,42.43344189989085]},"properties":{"selo":"Орлинци","namestnichestvo":"Карнобатска","obshtina":"Средец","oblast":"Бургас","adres":"8325, с. Орлинци","tip":"село"}},{"type":"Feature","geometry":{"type":"Point","coordinates":[26.78321849977557,42.5592905002844]},"properties":{"selo":"Маленово","namestnichestvo":"Карнобатска","obshtina":"Стралджа","oblast":"Ямбол","adres":"8689, с. Маленово","tip":"село"}},{"type":"Feature","geometry":{"type":"Point","coordinates":[26.773293999653195,42.76298179986661]},"properties":{"selo":"Сунгурларе","namestnichestvo":"Карнобатска","obshtina":"Сунгурларе","oblast":"Бургас","adres":"8470, гр. Сунгурларе, ул. \"Хр. Смирненски\" 0","tip":"град"}},{"type":"Feature","geometry":{"type":"Point","coordinates":[27.065361499857424,42.83492430022418]},"properties":{"selo":"(Гара)  Завет","namestnichestvo":"Карнобатска","obshtina":"Сунгурларе","oblast":"Бургас","adres":"8432, с. (Гара) Завет","tip":"село"}},{"type":"Feature","geometry":{"type":"Point","coordinates":[27.065361499857424,42.83492430022418]},"properties":{"selo":"(Гара) Завет","namestnichestvo":"Карнобатска","obshtina":"Сунгурларе","oblast":"Бургас","adres":"8432, с. (Гара) Завет","tip":"село"}},{"type":"Feature","geometry":{"type":"Point","coordinates":[26.69820090013906,42.831034999934225]},"properties":{"selo":"Бероново","namestnichestvo":"Карнобатска","obshtina":"Сунгурларе","oblast":"Бургас","adres":"8448, с. Бероново","tip":"село"}},{"type":"Feature","geometry":{"type":"Point","coordinates":[26.982514399728977,42.83311809981123]},"properties":{"selo":"Ведрово","namestnichestvo":"Карнобатска","obshtina":"Сунгурларе","oblast":"Бургас","adres":"8447, с. Ведрово","tip":"село"}},{"type":"Feature","geometry":{"type":"Point","coordinates":[26.708834300378005,42.854130999916975]},"properties":{"selo":"Везенково","namestnichestvo":"Карнобатска","obshtina":"Сунгурларе","oblast":"Бургас","adres":"8457, с. Везенково","tip":"село"}},{"type":"Feature","geometry":{"type":"Point","coordinates":[26.761435500385968,42.864204399794076]},"properties":{"selo":"Велислав","namestnichestvo":"Карнобатска","obshtina":"Сунгурларе","oblast":"Бургас","adres":"8458, с. Велислав","tip":"село"}},{"type":"Feature","geometry":{"type":"Point","coordinates":[26.629116099757773,42.80863459975194]},"properties":{"selo":"Дъбовица","namestnichestvo":"Карнобатска","obshtina":"Сунгурларе","oblast":"Бургас","adres":"8449, с. Дъбовица","tip":"село"}},{"type":"Feature","geometry":{"type":"Point","coordinates":[26.781012199708513,42.826638599895894]},"properties":{"selo":"Есен","namestnichestvo":"Карнобатска","obshtina":"Сунгурларе","oblast":"Бургас","adres":"8459, с. Есен","tip":"село"}},{"type":"Feature","geometry":{"type":"Point","coordinates":[26.952571499557138,42.78355889985657]},"properties":{"selo":"Костен","namestnichestvo":"Карнобатска","obshtina":"Сунгурларе","oblast":"Бургас","adres":"8441, с. Костен","tip":"село"}},{"type":"Feature","geometry":{"type":"Point","coordinates":[26.880530599595676,42.77107959981918]},"properties":{"selo":"Лозарево","namestnichestvo":"Карнобатска","obshtina":"Сунгурларе","oblast":"Бургас","adres":"8440, с. Лозарево","tip":"село"}},{"type":"Feature","geometry":{"type":"Point","coordinates":[26.84672290003489,42.8388317000868]},"properties":{"selo":"Подвис","namestnichestvo":"Карнобатска","obshtina":"Сунгурларе","oblast":"Бургас","adres":"8450, с. Подвис","tip":"село"}},{"type":"Feature","geometry":{"type":"Point","coordinates":[26.930423800331884,42.85017330003267]},"properties":{"selo":"Прилеп","namestnichestvo":"Карнобатска","obshtina":"Сунгурларе","oblast":"Бургас","adres":"8445, с. Прилеп","tip":"село"}},{"type":"Feature","geometry":{"type":"Point","coordinates":[26.728464000302335,42.7646257997896]},"properties":{"selo":"Славянци","namestnichestvo":"Карнобатска","obshtina":"Сунгурларе","oblast":"Бургас","adres":"8460, с. Славянци","tip":"село"}},{"type":"Feature","geometry":{"type":"Point","coordinates":[27.02794280012824,42.87449990012663]},"properties":{"selo":"Съединение","namestnichestvo":"Карнобатска","obshtina":"Сунгурларе","oblast":"Бургас","adres":"8430, с. Съединение","tip":"село"}},{"type":"Feature","geometry":{"type":"Point","coordinates":[26.76501750024203,42.68172919989837]},"properties":{"selo":"Терзийско","namestnichestvo":"Карнобатска","obshtina":"Сунгурларе","oblast":"Бургас","adres":"8465, с. Терзийско","tip":"село"}},{"type":"Feature","geometry":{"type":"Point","coordinates":[27.526110399573895,41.97904259970021]},"properties":{"selo":"Малко Търново","namestnichestvo":"Малко търновска","obshtina":"Малко Търново","oblast":"Бургас","adres":"8162, гр. Малко Търново, ул. \"България\" № 29","tip":"център"}},{"type":"Feature","geometry":{"type":"Point","coordinates":[27.303095600250902,42.160389700041605]},"properties":{"selo":"Близнак","namestnichestvo":"Малко търновска","obshtina":"Малко Търново","oblast":"Бургас","adres":"8174, с. Близнак","tip":"село"}},{"type":"Feature","geometry":{"type":"Point","coordinates":[27.427799199783017,42.046408400120214]},"properties":{"selo":"Бръшлян","namestnichestvo":"Малко търновска","obshtina":"Малко Търново","oblast":"Бургас","adres":"8163, с. Бръшлян","tip":"село"}},{"type":"Feature","geometry":{"type":"Point","coordinates":[27.454879700048657,42.16518430023584]},"properties":{"selo":"Бяла вода","namestnichestvo":"Малко търновска","obshtina":"Малко Търново","oblast":"Бургас","adres":"8171, с. Бяла вода","tip":"село"}},{"type":"Feature","geometry":{"type":"Point","coordinates":[27.601728900341502,42.124783699736156]},"properties":{"selo":"Визица","namestnichestvo":"Малко търновска","obshtina":"Малко Търново","oblast":"Бургас","adres":"8167, с. Визица","tip":"село"}},{"type":"Feature","geometry":{"type":"Point","coordinates":[27.65536259968252,42.061928100018214]},"properties":{"selo":"Граматиково","namestnichestvo":"Малко търновска","obshtina":"Малко Търново","oblast":"Бургас","adres":"8166, с. Граматиково","tip":"село"}},{"type":"Feature","geometry":{"type":"Point","coordinates":[27.34315009985585,42.132364500037916]},"properties":{"selo":"Евренозово","namestnichestvo":"Малко търновска","obshtina":"Малко Търново","oblast":"Бургас","adres":"8172, с. Евренозово","tip":"село"}},{"type":"Feature","geometry":{"type":"Point","coordinates":[27.562403399759322,42.10207310017518]},"properties":{"selo":"Заберново","namestnichestvo":"Малко търновска","obshtina":"Малко Търново","oblast":"Бургас","adres":"8168, с. Заберново","tip":"село"}},{"type":"Feature","geometry":{"type":"Point","coordinates":[27.417361699649632,42.109529299899755]},"properties":{"selo":"Звездец","namestnichestvo":"Малко търновска","obshtina":"Малко Търново","oblast":"Бургас","adres":"8170, с. Звездец","tip":"село"}},{"type":"Feature","geometry":{"type":"Point","coordinates":[27.53453749974582,42.126051100057815]},"properties":{"selo":"Калово","namestnichestvo":"Малко търновска","obshtina":"Малко Търново","oblast":"Бургас","adres":"8169, с. Калово","tip":"село"}},{"type":"Feature","geometry":{"type":"Point","coordinates":[27.53453749974582,42.126051100057815]},"properties":{"selo":"Калово","namestnichestvo":"Малко търновска","obshtina":"Малко Търново","oblast":"Бургас","adres":"8169, с. Калово","tip":"село"}},{"type":"Feature","geometry":{"type":"Point","coordinates":[27.371164500368966,42.15385159994513]},"properties":{"selo":"Младежко","namestnichestvo":"Малко търновска","obshtina":"Малко Търново","oblast":"Бургас","adres":"8173, с. Младежко","tip":"село"}},{"type":"Feature","geometry":{"type":"Point","coordinates":[27.665498900091016,41.96853639975532]},"properties":{"selo":"Сливарово","namestnichestvo":"Малко търновска","obshtina":"Малко Търново","oblast":"Бургас","adres":"8164, с. Сливарово","tip":"село"}},{"type":"Feature","geometry":{"type":"Point","coordinates":[27.516321899893992,42.03824649990921]},"properties":{"selo":"Стоилово","namestnichestvo":"Малко търновска","obshtina":"Малко Търново","oblast":"Бургас","adres":"8165, с. Стоилово","tip":"село"}},{"type":"Feature","geometry":{"type":"Point","coordinates":[27.774765500336127,42.234448199711466]},"properties":{"selo":"Китен","namestnichestvo":"Малко търновска","obshtina":"Приморско","oblast":"Бургас","adres":"8183, с. Китен","tip":"село"}},{"type":"Feature","geometry":{"type":"Point","coordinates":[27.676873800308165,42.220424700155796]},"properties":{"selo":"Писменово","namestnichestvo":"Малко търновска","obshtina":"Приморско","oblast":"Бургас","adres":"8182, с. Писменово","tip":"село"}},{"type":"Feature","geometry":{"type":"Point","coordinates":[27.849470600411056,42.170156200161166]},"properties":{"selo":"Царево","namestnichestvo":"Малко търновска","obshtina":"Царево","oblast":"Бургас","adres":"8260, гр. Царево","tip":"град"}},{"type":"Feature","geometry":{"type":"Point","coordinates":[27.849470600411056,42.170156200161166]},"properties":{"selo":"Царево","namestnichestvo":"Малко търновска","obshtina":"Царево","oblast":"Бургас","adres":"8260, гр. Царево, ул. \"Христо Ботев\" № 3","tip":"град"}},{"type":"Feature","geometry":{"type":"Point","coordinates":[27.939156599950326,42.09944299985862]},"properties":{"selo":"Ахтопол","namestnichestvo":"Малко търновска","obshtina":"Царево","oblast":"Бургас","adres":"8280, гр. Ахтопол, ул. \"Трети март\" № 6","tip":"град"}},{"type":"Feature","geometry":{"type":"Point","coordinates":[27.857668499929787,42.08799830008546]},"properties":{"selo":"Бродилово","namestnichestvo":"Малко търновска","obshtina":"Царево","oblast":"Бургас","adres":"8282, с. Бродилово","tip":"село"}},{"type":"Feature","geometry":{"type":"Point","coordinates":[27.728972700138474,42.08767769985194]},"properties":{"selo":"Българи","namestnichestvo":"Малко търновска","obshtina":"Царево","oblast":"Бургас","adres":"8274, с. Българи","tip":"село"}},{"type":"Feature","geometry":{"type":"Point","coordinates":[27.900405400414122,42.120182599982854]},"properties":{"selo":"Варвара","namestnichestvo":"Малко търновска","obshtina":"Царево","oblast":"Бургас","adres":"8278, с. Варвара","tip":"село"}},{"type":"Feature","geometry":{"type":"Point","coordinates":[27.77985590001333,42.18344449985735]},"properties":{"selo":"Велика","namestnichestvo":"Малко търновска","obshtina":"Царево","oblast":"Бургас","adres":"8271, с. Велика","tip":"село"}},{"type":"Feature","geometry":{"type":"Point","coordinates":[27.801411400158905,42.144206399670715]},"properties":{"selo":"Изгрев","namestnichestvo":"Малко търновска","obshtina":"Царево","oblast":"Бургас","adres":"8273, с. Изгрев","tip":"село"}},{"type":"Feature","geometry":{"type":"Point","coordinates":[27.68090310009029,42.09371120017013]},"properties":{"selo":"Кондолово","namestnichestvo":"Малко търновска","obshtina":"Царево","oblast":"Бургас","adres":"8257, с. Кондолово","tip":"село"}},{"type":"Feature","geometry":{"type":"Point","coordinates":[27.780382300193413,42.058893199711015]},"properties":{"selo":"Кости","namestnichestvo":"Малко търновска","obshtina":"Царево","oblast":"Бургас","adres":"8283, с. Кости","tip":"село"}},{"type":"Feature","geometry":{"type":"Point","coordinates":[27.806364600142754,42.20848090010783]},"properties":{"selo":"Лозенец","namestnichestvo":"Малко търновска","obshtina":"Царево","oblast":"Бургас","adres":"8277, с. Лозенец","tip":"село"}},{"type":"Feature","geometry":{"type":"Point","coordinates":[28.03141670037672,41.983912099966304]},"properties":{"selo":"Резово","namestnichestvo":"Малко търновска","obshtina":"Царево","oblast":"Бургас","adres":"8281, с. Резово","tip":"село"}},{"type":"Feature","geometry":{"type":"Point","coordinates":[27.976806199945212,42.06075290016087]},"properties":{"selo":"Синеморец","namestnichestvo":"Малко търновска","obshtina":"Царево","oblast":"Бургас","adres":"8279, с. Синеморец","tip":"село"}},{"type":"Feature","geometry":{"type":"Point","coordinates":[27.71945160017254,42.20104229981923]},"properties":{"selo":"Фазаново","namestnichestvo":"Малко търновска","obshtina":"Царево","oblast":"Бургас","adres":"8272, с. Фазаново","tip":"село"}},{"type":"Feature","geometry":{"type":"Point","coordinates":[26.447653800064806,42.890243800270056]},"properties":{"selo":"Котел","namestnichestvo":"Котелска","obshtina":"Котел","oblast":"Сливен","adres":"8970, гр. Котел, ул. \"Изворска \" № 12","tip":"център"}},{"type":"Feature","geometry":{"type":"Point","coordinates":[26.541683899604486,42.79419590006111]},"properties":{"selo":"Градец","namestnichestvo":"Котелска","obshtina":"Котел","oblast":"Сливен","adres":"8990, с. Градец","tip":"село"}},{"type":"Feature","geometry":{"type":"Point","coordinates":[26.459943499651548,42.833023100144715]},"properties":{"selo":"Жеравна","namestnichestvo":"Котелска","obshtina":"Котел","oblast":"Сливен","adres":"8988, с. Жеравна","tip":"село"}},{"type":"Feature","geometry":{"type":"Point","coordinates":[26.50921749974726,42.806410099769856]},"properties":{"selo":"Катунище","namestnichestvo":"Котелска","obshtina":"Котел","oblast":"Сливен","adres":"8991, с. Катунище","tip":"село"}},{"type":"Feature","geometry":{"type":"Point","coordinates":[26.558505599799645,42.842258900057324]},"properties":{"selo":"Медвен","namestnichestvo":"Котелска","obshtina":"Котел","oblast":"Сливен","adres":"8987, с. Медвен","tip":"село"}},{"type":"Feature","geometry":{"type":"Point","coordinates":[26.632305000438784,42.73997349975594]},"properties":{"selo":"Мокрен","namestnichestvo":"Котелска","obshtina":"Котел","oblast":"Сливен","adres":"8994, с. Мокрен","tip":"село"}},{"type":"Feature","geometry":{"type":"Point","coordinates":[26.367192799604133,42.81041540032132]},"properties":{"selo":"Нейково","namestnichestvo":"Котелска","obshtina":"Котел","oblast":"Сливен","adres":"8993, с. Нейково","tip":"село"}},{"type":"Feature","geometry":{"type":"Point","coordinates":[26.440264599897457,42.96978079989492]},"properties":{"selo":"Тича","namestnichestvo":"Котелска","obshtina":"Котел","oblast":"Сливен","adres":"8980, с. Тича","tip":"село"}},{"type":"Feature","geometry":{"type":"Point","coordinates":[26.453299000159795,42.76541990020257]},"properties":{"selo":"Ичера","namestnichestvo":"Котелска","obshtina":"Сливен","oblast":"Сливен","adres":"8849, с. Ичера","tip":"село"}},{"type":"Feature","geometry":{"type":"Point","coordinates":[26.30506310020725,42.798844199936376]},"properties":{"selo":"Раково","namestnichestvo":"Котелска","obshtina":"Сливен","oblast":"Сливен","adres":"8884, с. Раково","tip":"село"}}]}