{"type":"FeatureCollection","features":[{"type":"Feature","properties":{"Id":0},"geometry":{"type":"MultiPolygon","coordinates":[[[[26.083578743911975,42.80409257482585],[26.167959073338633,42.80555208462431],[26.30323284166941,42.867792425537395],[26.366006943980707,42.892411907708684],[26.34655581384895,42.92220129520018],[26.30942183781993,42.93385409280116],[26.28289756986976,42.94679906062542],[26.256262783089007,42.95998394756436],[26.274221923817915,42.98222198599073],[26.31152167584456,43.00849293691554],[26.361254679148487,43.019604189590915],[26.410987682454824,43.01960418959123],[26.464865102855462,43.016574047327374],[26.51736105089425,43.01455386941189],[26.56433110947951,43.00344170294495],[26.60024939005208,42.98323261490261],[26.601630861520338,42.95593980388077],[26.60301233388666,42.931669360841454],[26.627878835546408,42.914472008205216],[26.665178588484906,42.90536558427829],[26.706622757618884,42.90435367627414],[26.750829871483326,42.905365584279075],[26.800562874807316,42.91143668349503],[26.846151461937804,42.92357708735056],[26.90141035382761,42.927623357314275],[26.95805071898469,42.92762335731497],[27.00363930522721,42.92560025555578],[27.056135253295754,42.9336922632739],[27.12244592501634,42.95593980388689],[27.180467761655553,42.965038753404066],[27.281315240729167,42.967060558793484],[27.36420357996952,42.94683950945018],[27.422225416636838,42.93369226328076],[27.456762224887445,42.919530551625414],[27.474721364752455,42.892209485325075],[27.469195476194525,42.86183854314723],[27.458143697272146,42.84158294443866],[27.474721364767937,42.829426396861464],[27.49820639408958,42.83651800728915],[27.514784062478917,42.848673159866756],[27.513376065552258,42.868647793346575],[27.514507767637394,42.88357593988253],[27.51394191703853,42.897256901459585],[27.513941917035126,42.91052039002103],[27.519034575982182,42.92626707698243],[27.530351597767364,42.93703880751858],[27.55638074581357,42.94076704398013],[27.579580639986194,42.9432524097614],[27.610879276762763,42.929970071891866],[27.623257268198397,42.917669056156384],[27.65154982133153,42.90536558429561],[27.682494801264284,42.90083210698487],[27.700177647205418,42.87427218917749],[27.706366643376093,42.861311981659284],[27.71814805824071,42.857586030481535],[27.736009033810834,42.849844471134126],[27.75021959112765,42.845925534316486],[27.76221382317379,42.840572438444454],[27.777206612782564,42.83474085957502],[27.786593402963266,42.829960466498136],[27.797153541129735,42.82776136113816],[27.807844052691156,42.8289087303616],[27.82166349341506,42.82862188988825],[27.82909470241907,42.831012184740906],[27.875308550314532,42.83027419093363],[27.910638876424045,42.831441307392865],[27.964111801754957,42.83190814754377],[28.28984140418898,42.19259816327077],[28.260892985848365,41.77838342507952],[27.008873908047523,41.68657038199044],[26.363903156142367,41.569724547715474],[26.207882767534645,41.73410751111984],[26.21694052277101,41.73345565851507],[26.231468559051834,41.74000501556603],[26.235564710561906,41.737060546741475],[26.23935914042591,41.73130989113586],[26.24814868027844,41.72319889030144],[26.253962040506973,41.722469330144655],[26.25982618429533,41.71869277910071],[26.28719222577129,41.710796356322355],[26.303357482084046,41.70869362336605],[26.307843089202706,41.70955193015043],[26.31255507626489,41.708154321264],[26.32325565881627,41.714787482931605],[26.33556246772489,41.71521663663677],[26.347303986588138,41.71101093243907],[26.35814595318626,41.711177944888995],[26.35759317936719,41.71379506461696],[26.348577857848376,41.7223378417681],[26.333592891699045,41.732425689680014],[26.330567241852116,41.73729622354669],[26.330302356522157,41.74133884929338],[26.332077861411076,41.743245601281195],[26.3324639806764,41.747591138439034],[26.329452753281473,41.75062179588696],[26.33222222337129,41.75954818654773],[26.336708665024656,41.765127182203564],[26.34092950808564,41.77671432484005],[26.35374856152134,41.797313690212256],[26.35869872610125,41.80203437753493],[26.363879202550333,41.80967331000345],[26.37039113226991,41.821517943629644],[26.380041122520076,41.82264685658596],[26.40177834018629,41.82297706630675],[26.5395336155985,41.8237495423553],[26.55311739585471,41.84846878011523],[26.565040947532147,41.85455453422183],[26.562820197163287,41.855506896910185],[26.562324882284702,41.85729861215839],[26.563877702899152,41.86483025530924],[26.565982036996758,41.86656389040426],[26.54460368460482,41.8743072603381],[26.50746970946439,41.882206876153525],[26.47298816022261,41.8901055161267],[26.435854184185946,41.90589986508527],[26.417287196616403,41.9269529208205],[26.39518363968826,41.93353057652728],[26.376616651222253,41.93813453202258],[26.344787529678246,41.947341445273594],[26.323568114417874,41.95128685835681],[26.300580414926834,41.96246420309813],[26.27670857376993,41.97626880418235],[26.25548915940835,41.99335607062267],[26.228080747994102,42.017007791496134],[26.205093049402794,42.03671084147674],[26.182105349913517,42.05837714386614],[26.170611500168945,42.07084832931806],[26.137898235166666,42.101031579988685],[26.121099531832602,42.12136436711235],[26.103416686832738,42.1416906309981],[26.083965556705095,42.14562399311904],[26.06539856824345,42.15676719187016],[26.067166853371244,42.17708209341496],[26.076008276318984,42.19280527799182],[26.088386267727696,42.20328522881057],[26.10518497106013,42.20917943723985],[26.129940954776906,42.219001896533776],[26.153812796827747,42.2327507721456],[26.182105349903903,42.25435009826647],[26.200672337466912,42.27659621606088],[26.205977191056245,42.286408183787366],[26.22896489054226,42.32825541178683],[26.228964890541565,42.34132696490401],[26.228964890540777,42.356355892871996],[26.22454417951501,42.362889088629956],[26.210397902975796,42.36746192155588],[26.190062630282412,42.37725972794491],[26.181221207332992,42.38705600588266],[26.185641918357803,42.39685075598469],[26.195367483870413,42.41121362373076],[26.229849033101168,42.432751759551586],[26.239574597715233,42.456239469829775],[26.241342882842737,42.481022499127164],[26.238690456046655,42.502536643091915],[26.23603802835256,42.51883030980986],[26.22448892053929,42.54102359437861],[26.180281805793584,42.562394989742906],[26.14850794322175,42.58172470825428],[26.115352607388544,42.601048435897425],[26.087723161010853,42.62544879088478],[26.073908438270724,42.651871721275825],[26.07390843826957,42.67929904128191],[26.064238131722284,42.709759649150364],[26.057330769902876,42.73107318387333],[26.057330769901824,42.756436894050466],[26.068382548810614,42.776720390538934],[26.083578743911975,42.80409257482585]]],[[[26.083578743911975,42.80409257482585],[26.020031017877585,42.79091488606309],[25.97187537178085,42.787155365099196],[26.040996241346576,42.81766793004258],[26.083578743911975,42.80409257482585]]]]}}]}