{"type":"FeatureCollection","features":[{"type":"Feature","properties":{"Id":0,"Name":"Устремски","Eparhiya":"Сливен"},"geometry":{"type":"Point","coordinates":[26.464067185206837,42.0135439614767]}},{"type":"Feature","properties":{"Id":0,"Name":"Сотирски","Eparhiya":"Сливен"},"geometry":{"type":"Point","coordinates":[26.390185706544905,42.67869314855526]}},{"type":"Feature","properties":{"Id":0,"Name":"Кабиленски","Eparhiya":"Сливен"},"geometry":{"type":"Point","coordinates":[26.470596022788165,42.504634367173836]}},{"type":"Feature","properties":{"Id":0,"Name":"Бакаджишки","Eparhiya":"Сливен"},"geometry":{"type":"Point","coordinates":[26.66742127448832,42.468347832559154]}},{"type":"Feature","properties":{"Id":0,"Name":"Бургаски","Eparhiya":"Сливен"},"geometry":{"type":"Point","coordinates":[27.54733192325966,42.4407304821667]}},{"type":"Feature","properties":{"Id":0,"Name":"Поморийски","Eparhiya":"Сливен"},"geometry":{"type":"Point","coordinates":[27.60828822370495,42.57626193990359]}},{"type":"Feature","properties":{"Id":0,"Name":"Горноезеровски","Eparhiya":"Сливен"},"geometry":{"type":"Point","coordinates":[27.383143178443646,42.45814133011326]}},{"type":"Feature","properties":{"Id":0,"Name":"Люляковски","Eparhiya":"Сливен"},"geometry":{"type":"Point","coordinates":[27.022321206428426,42.86734371013515]}},{"type":"Feature","properties":{"Id":0,"Name":"Голямобукувски","Eparhiya":"Сливен"},"geometry":{"type":"Point","coordinates":[27.252491323047032,42.191209897763954]}}]}